start_ip,end_ip,join_key,city,region,country,latitude,longitude,postal_code,timezone
105.129.228.28,105.129.228.28,105.129.0.0,Ifrane,Fès-Meknès,MA,33.52666,-5.11019,,Africa/Casablanca
105.106.231.80,105.106.231.107,105.106.0.0,Aïn Smara,Constantine,DZ,36.1842,6.579,25044,Africa/Algiers
101.21.33.220,101.21.33.221,101.21.0.0,Xiamen,Fujian,CN,24.47979,118.08187,,Asia/Shanghai
101.25.80.160,101.25.80.167,101.25.0.0,Qingdao,Shandong,CN,36.06488,120.38042,,Asia/Shanghai
1.120.158.234,1.120.158.255,1.120.0.0,Hobart,Tasmania,AU,-42.85095,147.3039,7008,Australia/Hobart
103.251.215.63,103.251.215.63,103.251.0.0,Ahmedabad,Gujarat,IN,23.02579,72.58727,380001,Asia/Kolkata
101.174.199.76,101.174.199.77,101.174.0.0,Tuncester,New South Wales,AU,-28.8,153.21667,2480,Australia/Sydney
101.108.17.104,101.108.17.115,101.108.0.0,Photharam,Ratchaburi,TH,13.69234,99.84969,70120,Asia/Bangkok
101.249.210.172,101.249.210.175,101.249.0.0,Bayi,Tibet,CN,29.65812,94.35892,,Asia/Shanghai
102.45.159.203,102.45.159.206,102.45.0.0,Giza,Giza,EG,30.00944,31.20861,,Africa/Cairo
101.249.32.110,101.249.32.110,101.249.0.0,Rikaze,Tibet,CN,29.25,88.88333,,Asia/Shanghai
104.247.130.131,104.247.130.131,104.247.0.0,Visalia,California,US,36.33023,-119.29206,93278,America/Los_Angeles
101.108.203.216,101.108.204.73,101.108.0.0,Nakhon Pathom,Nakhon Pathom,TH,13.8196,100.04427,73000,Asia/Bangkok
102.158.137.200,102.158.138.63,102.158.0.0,Tunis,Tūnis,TN,36.81897,10.16579,,Africa/Tunis
102.185.59.144,102.185.59.207,102.185.0.0,Cairo,Cairo,EG,30.06263,31.24967,,Africa/Cairo
104.183.225.0,104.183.225.255,104.183.0.0,South Bend,Indiana,US,41.6674,-86.3153,46619,America/Indiana/Indianapolis
101.30.116.62,101.30.116.62,101.30.0.0,Qingdao,Shandong,CN,36.06488,120.38042,,Asia/Shanghai
101.184.78.64,101.184.78.87,101.184.0.0,Coffs Harbour,New South Wales,AU,-30.29626,153.11351,2450,Australia/Sydney
1.251.223.0,1.251.223.63,1.251.0.0,Gimcheon,Gyeongsangbuk-do,KR,36.0946,128.1096,39619,Asia/Seoul
101.20.169.44,101.20.169.52,101.20.0.0,Shenyang,Liaoning,CN,41.79222,123.43278,,Asia/Shanghai
104.168.37.130,104.168.37.131,104.168.0.0,New York City,New York,US,40.71427,-74.00597,10004,America/New_York
1.204.125.17,1.204.125.17,1.204.0.0,Chengdu,Sichuan,CN,30.66667,104.06667,,Asia/Shanghai
101.23.8.128,101.23.8.143,101.23.0.0,Tianjin,Tianjin,CN,39.14222,117.17667,,Asia/Shanghai
101.204.10.90,101.204.10.93,101.204.0.0,Chengdu,Sichuan,CN,30.66667,104.06667,,Asia/Shanghai
1.189.6.44,1.189.6.47,1.189.0.0,Harbin,Heilongjiang,CN,45.75,126.65,,Asia/Shanghai
105.110.10.92,105.110.10.191,105.110.0.0,Constantine,Constantine,DZ,36.343,6.6462,25002,Africa/Algiers
104.177.128.108,104.177.128.111,104.177.0.0,Jonesboro,Louisiana,US,32.24127,-92.71599,71251,America/Chicago
101.65.235.30,101.65.235.31,101.65.0.0,Beijing,Beijing,CN,39.9075,116.39723,,Asia/Shanghai
1.181.189.161,1.181.189.162,1.181.0.0,Hangzhou,Zhejiang,CN,30.29365,120.16142,,Asia/Shanghai
102.52.88.152,102.52.88.191,102.52.0.0,Nador,Oriental,MA,35.16813,-2.93352,,Africa/Casablanca
104.50.135.5,104.50.135.5,104.50.0.0,Ely,Nevada,US,39.24744,-114.88863,89301,America/Los_Angeles
1.69.223.54,1.69.223.55,1.69.0.0,Hangzhou,Zhejiang,CN,30.29365,120.16142,,Asia/Shanghai
101.98.102.224,101.98.102.231,101.98.0.0,Whakatane,Bay of Plenty,NZ,-37.95855,176.98545,3158,Pacific/Auckland
104.232.51.0,104.232.51.255,104.232.0.0,Montréal,Quebec,CA,45.50884,-73.58781,H3H,America/Toronto
1.204.218.11,1.204.218.11,1.204.0.0,Chengdu,Sichuan,CN,30.66667,104.06667,,Asia/Shanghai
101.20.60.245,101.20.60.245,101.20.0.0,Chengdu,Sichuan,CN,30.66667,104.06667,,Asia/Shanghai
1.53.55.136,1.53.55.139,1.53.0.0,Hòn Đất,Kiến Giang,VN,10.18462,104.92959,91306,Asia/Ho_Chi_Minh
1.158.165.8,1.158.165.79,1.158.0.0,Adelaide,South Australia,AU,-35.1193,138.477,5166,Australia/Adelaide
102.191.227.208,102.191.227.211,102.191.0.0,Cairo,Cairo,EG,30.06263,31.24967,,Africa/Cairo
1.52.55.158,1.52.55.158,1.52.0.0,Cái Dầu,An Giang,VN,10.56982,105.22953,90606,Asia/Ho_Chi_Minh
105.109.83.112,105.109.83.129,105.109.0.0,Sétif,Sétif,DZ,36.19112,5.41373,19034,Africa/Algiers
1.25.60.152,1.25.60.155,1.25.0.0,Guangzhou,Guangdong,CN,23.11667,113.25,,Asia/Shanghai
1.204.103.230,1.204.103.233,1.204.0.0,Chengdu,Sichuan,CN,30.66667,104.06667,,Asia/Shanghai
100.10.140.128,100.10.140.255,100.10.0.0,Ashburn,Virginia,US,39.04372,-77.48749,20147,America/New_York
104.95.191.131,104.95.191.131,104.95.0.0,New York City,New York,US,40.71427,-74.00597,10004,America/New_York
1.81.182.205,1.81.182.205,1.81.0.0,Chengdu,Sichuan,CN,30.66667,104.06667,,Asia/Shanghai
1.62.135.60,1.62.135.67,1.62.0.0,Tianjin,Tianjin,CN,39.14222,117.17667,,Asia/Shanghai
1.52.163.129,1.52.163.131,1.52.0.0,Ho Chi Minh City,Ho Chi Minh,VN,10.82302,106.62965,71606,Asia/Ho_Chi_Minh
101.26.220.72,101.26.220.79,101.26.0.0,Xiamen,Fujian,CN,24.47979,118.08187,,Asia/Shanghai
1.82.101.119,1.82.101.119,1.82.0.0,Hangzhou,Zhejiang,CN,30.29365,120.16142,,Asia/Shanghai
101.205.142.173,101.205.142.175,101.205.0.0,Chengdu,Sichuan,CN,30.66667,104.06667,,Asia/Shanghai
102.170.113.218,102.170.113.255,102.170.0.0,Sousse,Sūsah,TN,35.82539,10.63699,,Africa/Tunis
1.196.84.58,1.196.84.59,1.196.0.0,Henan,Heilongjiang,CN,47.9658,126.01958,,Asia/Shanghai
1.187.19.116,1.187.19.116,1.187.0.0,Nashik,Maharashtra,IN,19.99727,73.79096,422221,Asia/Kolkata
101.204.52.172,101.204.52.172,101.204.0.0,Qingdao,Shandong,CN,36.06488,120.38042,,Asia/Shanghai
104.204.34.0,104.204.34.255,104.204.0.0,Toronto,Ontario,CA,43.6655,-79.4378,M6H,America/Toronto
103.108.48.0,103.108.48.255,103.108.0.0,Bengaluru,Karnataka,IN,12.97194,77.59369,560002,Asia/Kolkata
1.48.12.211,1.48.12.211,1.48.0.0,Chengdu,Sichuan,CN,30.66667,104.06667,,Asia/Shanghai
102.154.1.32,102.154.1.111,102.154.0.0,Tunis,Tūnis,TN,36.81897,10.16579,,Africa/Tunis
101.249.62.12,101.249.62.12,101.249.0.0,Rikaze,Tibet,CN,29.25,88.88333,,Asia/Shanghai
1.41.68.0,1.41.68.247,1.41.0.0,Sydney,New South Wales,AU,-33.8644,151.0397,1826,Australia/Sydney
104.188.129.192,104.188.129.207,104.188.0.0,Jackson,Mississippi,US,32.3739,-90.1293,39211,America/Chicago
101.179.4.224,101.179.4.224,101.179.0.0,Lakes Creek,Queensland,AU,-23.36188,150.5763,4701,Australia/Brisbane
101.67.249.250,101.67.249.253,101.67.0.0,Hangzhou,Zhejiang,CN,30.29365,120.16142,,Asia/Shanghai
101.93.134.0,101.93.134.255,101.93.0.0,Minhang,Shanghai,CN,31.10881,121.37471,,Asia/Shanghai
1.120.208.40,1.120.208.43,1.120.0.0,Launceston,Tasmania,AU,-41.4388,147.1347,7902,Australia/Hobart
103.52.37.0,103.52.37.127,103.52.0.0,Mahbūbnagar,Telangana,IN,16.74385,77.98597,509407,Asia/Kolkata
101.175.97.240,101.175.97.255,101.175.0.0,Perth,Western Australia,AU,-31.94325,115.86335,6003,Australia/Perth
103.103.107.184,103.103.107.255,103.103.0.0,Kingscote,South Australia,AU,-35.6559,137.6393,5223,Australia/Adelaide
1.33.8.96,1.33.8.127,1.33.0.0,Kobe,Hyōgo,JP,34.6789,135.1812,650-0047,Asia/Tokyo
1.197.75.160,1.197.75.191,1.197.0.0,Chengdu,Sichuan,CN,30.66667,104.06667,,Asia/Shanghai
102.190.218.152,102.190.218.159,102.190.0.0,Al Minyā,Minya,EG,28.09193,30.75813,,Africa/Cairo
103.219.46.144,103.219.46.161,103.219.0.0,Barddhamān,West Bengal,IN,23.25572,87.85691,713321,Asia/Kolkata
101.20.16.90,101.20.16.91,101.20.0.0,Qingdao,Shandong,CN,36.06488,120.38042,,Asia/Shanghai
1.156.29.100,1.156.29.101,1.156.0.0,Fingal Bay,New South Wales,AU,-32.77265,152.07777,2316,Australia/Sydney
101.189.59.24,101.189.59.31,101.189.0.0,Clarkson,Western Australia,AU,-31.68282,115.7247,6030,Australia/Perth
1.69.38.84,1.69.38.87,1.69.0.0,Nanjing,Jiangsu,CN,32.06167,118.77778,,Asia/Shanghai
1.158.159.148,1.158.159.151,1.158.0.0,Kadina,South Australia,AU,-33.96495,137.71634,5554,Australia/Adelaide
102.66.145.0,102.66.146.255,102.66.0.0,Queenstown,Eastern Cape,ZA,-31.9,26.8833,5330,Africa/Johannesburg
101.138.179.57,101.138.179.57,101.138.0.0,Taichung,Taiwan,TW,24.1469,120.6839,,Asia/Taipei
1.158.33.230,1.158.33.230,1.158.0.0,Sydney,New South Wales,AU,-33.8678,151.2073,1032,Australia/Sydney
104.190.210.0,104.190.210.255,104.190.0.0,Saint Charles,Missouri,US,38.7622,-90.5471,63303,America/Chicago
101.190.163.240,101.190.163.255,101.190.0.0,Albion Park Rail,New South Wales,AU,-34.56634,150.79177,2527,Australia/Sydney
101.137.173.248,101.137.173.249,101.137.0.0,Kaohsiung,Takao,TW,22.61626,120.31333,,Asia/Taipei
104.159.197.64,104.159.197.67,104.159.0.0,Edwardsville,Illinois,US,38.805,-89.9637,62025,America/Chicago
1.204.98.182,1.204.98.183,1.204.0.0,Guizhou,Hubei,CN,30.99695,110.68975,,Asia/Shanghai
100.7.208.183,100.7.208.191,100.7.0.0,Emporia,Virginia,US,36.68598,-77.54248,23847,America/New_York
103.178.12.160,103.178.12.207,103.178.0.0,Lawang,East Java,ID,-7.8353,112.6947,,Asia/Jakarta
1.207.53.1,1.207.53.1,1.207.0.0,Hangzhou,Zhejiang,CN,30.29365,120.16142,,Asia/Shanghai
1.43.74.212,1.43.74.255,1.43.0.0,Sydney,New South Wales,AU,-33.86785,151.20732,1001,Australia/Sydney
101.179.161.72,101.179.161.103,101.179.0.0,Townsville,Queensland,AU,-19.29718,146.76603,4814,Australia/Brisbane
104.239.107.188,104.239.107.189,104.239.0.0,Dahlonega,Georgia,US,34.53259,-83.98491,30533,America/New_York
101.22.195.76,101.22.195.76,101.22.0.0,Xiamen,Fujian,CN,24.47979,118.08187,,Asia/Shanghai
101.64.65.127,101.64.65.127,101.64.0.0,Xiamen,Fujian,CN,24.47979,118.08187,,Asia/Shanghai
104.159.232.48,104.159.232.55,104.159.0.0,Allendale,Michigan,US,42.97225,-85.95365,49401,America/Detroit
100.4.140.0,100.4.140.5,100.4.0.0,South Glens Falls,New York,US,43.29924,-73.63512,12803,America/New_York
1.62.19.73,1.62.19.75,1.62.0.0,Tianjin,Tianjin,CN,39.14222,117.17667,,Asia/Shanghai
101.186.132.88,101.186.132.96,101.186.0.0,Melbourne,Victoria,AU,-37.80565,145.034,3101,Australia/Melbourne
104.177.128.140,104.177.128.143,104.177.0.0,Sumrall,Mississippi,US,31.41739,-89.54229,39482,America/Chicago
1.43.23.32,1.43.23.39,1.43.0.0,North Gosford,New South Wales,AU,-33.414,151.3516,2250,Australia/Sydney
1.81.171.134,1.81.171.135,1.81.0.0,Xiamen,Fujian,CN,24.47979,118.08187,,Asia/Shanghai
1.56.92.54,1.56.92.71,1.56.0.0,Tianjin,Tianjin,CN,39.14222,117.17667,,Asia/Shanghai
102.158.134.32,102.158.134.47,102.158.0.0,Ksar Hellal,Al Munastīr,TN,35.64773,10.89046,,Africa/Tunis
101.51.27.156,101.51.27.167,101.51.0.0,Sawang Daen Din,Sakon Nakhon,TH,17.47531,103.45753,47110,Asia/Bangkok
105.105.1.172,105.105.1.175,105.105.0.0,Tébessa,Tébessa,DZ,35.4571,8.066,12007,Africa/Algiers
1.207.53.41,1.207.53.42,1.207.0.0,Chengdu,Sichuan,CN,30.66667,104.06667,,Asia/Shanghai
102.78.54.32,102.78.54.47,102.78.0.0,Marrakesh,Marrakesh-Safi,MA,31.63416,-7.99994,,Africa/Casablanca
101.179.16.99,101.179.16.102,101.179.0.0,Alexandra Headland,Queensland,AU,-26.67154,153.10058,4572,Australia/Brisbane
105.152.155.0,105.152.155.7,105.152.0.0,Casablanca,Casablanca-Settat,MA,33.58831,-7.61138,,Africa/Casablanca
102.190.46.188,102.190.46.203,102.190.0.0,Cairo,Cairo,EG,30.06263,31.24967,,Africa/Cairo
104.7.109.0,104.7.109.103,104.7.0.0,Oklahoma City,Oklahoma,US,35.4605,-97.3974,73110,America/Chicago
104.159.237.0,104.159.237.27,104.159.0.0,Grand Haven,Michigan,US,43.06307,-86.22839,49417,America/Detroit
102.129.73.204,102.129.73.215,102.129.0.0,Dolisie,Niari,CG,-4.19834,12.66664,,Africa/Brazzaville
102.178.127.248,102.178.127.255,102.178.0.0,Ouahigouya,Nord,BF,13.58278,-2.42158,,Africa/Ouagadougou
101.176.16.36,101.176.16.36,101.176.0.0,Mininera,Victoria,AU,-37.6,142.96667,3351,Australia/Melbourne
1.38.57.15,1.38.57.19,1.38.0.0,Dindigul,Tamil Nadu,IN,10.36896,77.98036,624002,Asia/Kolkata
101.67.67.26,101.67.67.27,101.67.0.0,Weno,Chuuk,FM,7.44648,151.84135,96942,Pacific/Chuuk
1.74.117.208,1.74.117.223,1.74.0.0,Ichikawa-minami,Chiba,JP,35.72634,139.90392,272-0032,Asia/Tokyo
102.184.131.88,102.184.131.91,102.184.0.0,Asyūţ,Asyut,EG,27.18096,31.18368,,Africa/Cairo
1.42.27.16,1.42.27.23,1.42.0.0,Forster,New South Wales,AU,-32.18136,152.51715,2428,Australia/Sydney
1.49.140.144,1.49.140.147,1.49.0.0,Hangzhou,Zhejiang,CN,30.29365,120.16142,,Asia/Shanghai
102.123.151.160,102.123.151.191,102.123.0.0,El Bauga,River Nile,SD,18.26197,33.90812,,Africa/Khartoum
102.39.44.220,102.39.44.255,102.39.0.0,Port Elizabeth,Eastern Cape,ZA,-33.8753,25.49035,6241,Africa/Johannesburg
102.169.104.224,102.169.104.239,102.169.0.0,Sfax,Şafāqis,TN,34.74056,10.76028,,Africa/Tunis
1.180.228.64,1.180.228.103,1.180.0.0,Suzhou,Jiangsu,CN,31.30408,120.59538,,Asia/Shanghai
101.65.174.115,101.65.174.115,101.65.0.0,Beijing,Beijing,CN,39.9075,116.39723,,Asia/Shanghai
1.84.89.186,1.84.89.189,1.84.0.0,Nanjing,Jiangsu,CN,32.06167,118.77778,,Asia/Shanghai
102.52.71.16,102.52.71.27,102.52.0.0,Oujda-Angad,Oriental,MA,34.68139,-1.90858,,Africa/Casablanca
101.178.200.16,101.178.200.31,101.178.0.0,Hobart,Tasmania,AU,-42.8794,147.3294,7804,Australia/Hobart
102.1.164.122,102.1.164.122,102.1.0.0,Voi,Taita Taveta,KE,-3.39605,38.55609,,Africa/Nairobi
1.220.182.0,1.220.184.146,1.220.0.0,Seoul,Seoul,KR,37.566,126.9784,03141,Asia/Seoul
101.19.247.86,101.19.247.89,101.19.0.0,Qingdao,Shandong,CN,36.06488,120.38042,,Asia/Shanghai
102.168.253.243,102.168.253.243,102.168.0.0,Sousse,Sūsah,TN,35.82539,10.63699,,Africa/Tunis
103.167.174.108,103.167.174.111,103.167.0.0,Rohtak,Haryana,IN,28.89447,76.58917,124001,Asia/Kolkata
102.158.31.240,102.158.31.247,102.158.0.0,Msaken,Sūsah,TN,35.72917,10.58082,,Africa/Tunis
104.227.183.0,104.227.183.255,104.227.0.0,Montréal,Quebec,CA,45.50884,-73.58781,H3H,America/Toronto
1.62.249.130,1.62.249.131,1.62.0.0,Qingdao,Shandong,CN,36.06488,120.38042,,Asia/Shanghai
103.156.45.188,103.156.45.188,103.156.0.0,Ho Chi Minh City,Ho Chi Minh,VN,10.82302,106.62965,71606,Asia/Ho_Chi_Minh
101.64.139.120,101.64.139.121,101.64.0.0,Tianjin,Tianjin,CN,39.14222,117.17667,,Asia/Shanghai
101.249.10.139,101.249.10.139,101.249.0.0,Chengdu,Sichuan,CN,30.66667,104.06667,,Asia/Shanghai
1.206.71.128,1.206.71.131,1.206.0.0,Guangzhou,Guangdong,CN,23.11667,113.25,,Asia/Shanghai
101.66.209.201,101.66.209.201,101.66.0.0,Xiamen,Fujian,CN,24.47979,118.08187,,Asia/Shanghai
1.188.203.52,1.188.203.95,1.188.0.0,Beijing,Beijing,CN,39.9075,116.39723,,Asia/Shanghai
1.206.70.30,1.206.70.31,1.206.0.0,Guiyang,Guizhou,CN,26.58333,106.71667,,Asia/Shanghai
1.69.236.136,1.69.236.139,1.69.0.0,Hangzhou,Zhejiang,CN,30.29365,120.16142,,Asia/Shanghai
105.154.80.4,105.154.80.7,105.154.0.0,Guelmim,Guelmim-Oued Noun,MA,28.98696,-10.05738,,Africa/Casablanca
1.29.107.128,1.29.107.207,1.29.0.0,Tianjin,Tianjin,CN,39.14222,117.17667,,Asia/Shanghai
101.64.118.108,101.64.118.109,101.64.0.0,Qingdao,Shandong,CN,36.06488,120.38042,,Asia/Shanghai
103.104.122.21,103.104.123.31,103.104.0.0,Hanoi,Hanoi,VN,21.0245,105.84117,10000,Asia/Bangkok
104.160.248.0,104.160.251.255,104.160.0.0,Ottawa,Ontario,CA,45.41117,-75.69812,K1R,America/Toronto
1.15.154.32,1.15.154.39,1.15.0.0,Beijing,Beijing,CN,39.9075,116.39723,,Asia/Shanghai
104.44.111.0,104.44.111.255,104.44.0.0,Des Moines,Iowa,US,41.5878,-93.6274,50392,America/Chicago
102.189.76.223,102.189.76.223,102.189.0.0,Kafr ad Dawwār,Beheira,EG,31.13379,30.12969,,Africa/Cairo
1.53.14.162,1.53.14.165,1.53.0.0,Ho Chi Minh City,Ho Chi Minh,VN,10.82302,106.62965,71606,Asia/Ho_Chi_Minh
104.28.57.107,104.28.57.108,104.28.0.0,Reading,Pennsylvania,US,40.33565,-75.92687,19602,America/New_York
101.16.131.32,101.16.131.35,101.16.0.0,Chengdu,Sichuan,CN,30.66667,104.06667,,Asia/Shanghai
104.235.49.156,104.235.49.159,104.235.0.0,Menominee,Illinois,US,42.48778,-90.53318,61025,America/Chicago
103.244.0.0,103.244.3.255,103.244.0.0,Hong Kong,Central and Western,HK,22.27832,114.17469,,Asia/Hong_Kong
101.51.42.184,101.51.42.185,101.51.0.0,Chanuman,Amnat Charoen,TH,16.23356,105.0005,49120,Asia/Bangkok
105.111.56.124,105.111.56.127,105.111.0.0,Batna,Batna,DZ,35.5244,6.2071,05068,Africa/Algiers
101.28.60.86,101.28.60.87,101.28.0.0,Xiamen,Fujian,CN,24.47979,118.08187,,Asia/Shanghai
1.50.134.111,1.50.134.111,1.50.0.0,Nanjing,Jiangsu,CN,32.06167,118.77778,,Asia/Shanghai
101.174.153.200,101.174.153.207,101.174.0.0,Sydney,New South Wales,AU,-33.88835,151.1964,2008,Australia/Sydney
102.158.192.208,102.158.192.223,102.158.0.0,Tunis,Tūnis,TN,36.81897,10.16579,,Africa/Tunis
104.142.136.121,104.142.136.122,104.142.0.0,Frankfurt am Main,Hesse,DE,50.11552,8.68417,60306,Europe/Berlin
101.30.244.72,101.30.244.72,101.30.0.0,Xiamen,Fujian,CN,24.47979,118.08187,,Asia/Shanghai
102.58.207.64,102.58.209.255,102.58.0.0,Cairo,Cairo,EG,30.06263,31.24967,,Africa/Cairo
102.42.244.156,102.42.244.159,102.42.0.0,Giza,Giza,EG,30.00944,31.20861,,Africa/Cairo
1.245.19.112,1.245.19.191,1.245.0.0,Seoul,Seoul,KR,37.566,126.9784,03141,Asia/Seoul
1.199.159.71,1.199.159.71,1.199.0.0,Hangzhou,Zhejiang,CN,30.29365,120.16142,,Asia/Shanghai
101.136.80.56,101.136.80.59,101.136.0.0,Chang-hua,Taiwan,TW,24.07327,120.56276,,Asia/Taipei
101.174.33.204,101.174.33.208,101.174.0.0,Adelaide,South Australia,AU,-34.77377,138.7195,5125,Australia/Adelaide
101.190.59.230,101.190.59.230,101.190.0.0,Newcastle,New South Wales,AU,-32.92953,151.7801,2300,Australia/Sydney
1.244.189.64,1.244.189.79,1.244.0.0,Goyang-si,Gyeonggi-do,KR,37.6233,126.7188,10097,Asia/Seoul
1.158.74.88,1.158.74.91,1.158.0.0,Sydney,New South Wales,AU,-33.758,150.67319,2750,Australia/Sydney
103.121.35.114,103.121.35.114,103.121.0.0,Auckland,Auckland,NZ,-36.84853,174.76349,1010,Pacific/Auckland
101.174.0.88,101.174.0.95,101.174.0.0,Adelaide,South Australia,AU,-34.92866,138.59863,5000,Australia/Adelaide
103.44.175.232,103.44.175.237,103.44.0.0,Kolkata,West Bengal,IN,22.55,88.3833,700015,Asia/Kolkata
101.248.224.39,101.248.224.39,101.248.0.0,Chengdu,Sichuan,CN,30.66667,104.06667,,Asia/Shanghai
1.183.168.17,1.183.168.17,1.183.0.0,Hangzhou,Zhejiang,CN,30.29365,120.16142,,Asia/Shanghai
1.235.79.0,1.235.79.255,1.235.0.0,Gunpo,Gyeonggi-do,KR,37.3944,127.0022,16008,Asia/Seoul
102.53.95.114,102.53.95.114,102.53.0.0,Tétouan,Tanger-Tetouan-Al Hoceima,MA,35.57845,-5.36837,,Africa/Casablanca
104.44.41.42,104.44.41.44,104.44.0.0,Redmond,Washington,US,47.67399,-122.12151,98052,America/Los_Angeles
1.193.225.216,1.193.225.219,1.193.0.0,Chengdu,Sichuan,CN,30.66667,104.06667,,Asia/Shanghai
103.136.231.64,103.136.231.127,103.136.0.0,Sylhet,Sylhet,BD,24.89904,91.87198,3107,Asia/Dhaka
101.163.152.64,101.163.152.79,101.163.0.0,Barnawartha,Victoria,AU,-36.10415,146.67606,3688,Australia/Melbourne
101.248.154.80,101.248.154.80,101.248.0.0,Chengdu,Sichuan,CN,30.66667,104.06667,,Asia/Shanghai
102.185.194.76,102.185.194.79,102.185.0.0,Shibīn al Kawm,Monufia,EG,30.55258,31.00904,,Africa/Cairo
105.154.108.184,105.154.108.187,105.154.0.0,Bni Bouayach,Tanger-Tetouan-Al Hoceima,MA,35.10506,-3.84028,,Africa/Casablanca
104.4.69.0,104.4.69.255,104.4.0.0,Louisville,Kentucky,US,38.25424,-85.75941,40259,America/Kentucky/Louisville
104.177.177.102,104.177.177.103,104.177.0.0,Louisville,Georgia,US,33.00154,-82.41124,30434,America/New_York
101.249.63.40,101.249.63.40,101.249.0.0,Bayi,Tibet,CN,29.65812,94.35892,,Asia/Shanghai
101.20.149.78,101.20.149.80,101.20.0.0,Shenyang,Liaoning,CN,41.79222,123.43278,,Asia/Shanghai
101.20.106.228,101.20.106.230,101.20.0.0,Tianjin,Tianjin,CN,39.14222,117.17667,,Asia/Shanghai
104.2.201.160,104.2.201.163,104.2.0.0,Coal Valley,Illinois,US,41.42865,-90.46096,61240,America/Chicago
101.161.220.46,101.161.220.48,101.161.0.0,Campbelltown,New South Wales,AU,-34.04484,150.75101,2567,Australia/Sydney
1.2.145.52,1.2.145.59,1.2.0.0,Udon Thani,Udon Thani,TH,17.41567,102.78589,41000,Asia/Bangkok
101.191.175.86,101.191.175.87,101.191.0.0,Port Macquarie,New South Wales,AU,-31.43084,152.90894,2444,Australia/Sydney
105.154.100.88,105.154.100.95,105.154.0.0,Fès,Fès-Meknès,MA,34.03313,-5.00028,,Africa/Casablanca
101.173.246.100,101.173.246.103,101.173.0.0,Maitland Vale,New South Wales,AU,-32.6769,151.55565,2320,Australia/Sydney
103.27.240.216,103.27.240.225,103.27.0.0,Beijing,Beijing,CN,39.9075,116.39723,,Asia/Shanghai
103.147.32.92,103.147.32.92,103.147.0.0,Bandung,West Java,ID,-6.92222,107.60694,,Asia/Jakarta
101.75.145.21,101.75.145.21,101.75.0.0,Qingdao,Shandong,CN,36.06488,120.38042,,Asia/Shanghai
1.29.24.0,1.29.24.15,1.29.0.0,Beijing,Beijing,CN,39.9075,116.39723,,Asia/Shanghai
101.20.240.196,101.20.240.197,101.20.0.0,Tianjin,Tianjin,CN,39.14222,117.17667,,Asia/Shanghai
102.189.64.126,102.189.64.127,102.189.0.0,Alexandria,Alexandria,EG,31.20176,29.91582,,Africa/Cairo
102.189.5.2,102.189.5.2,102.189.0.0,Alexandria,Alexandria,EG,31.20176,29.91582,,Africa/Cairo
1.62.35.227,1.62.35.230,1.62.0.0,Tianjin,Tianjin,CN,39.14222,117.17667,,Asia/Shanghai
103.212.240.0,103.212.240.127,103.212.0.0,Adelaide,South Australia,AU,-34.92866,138.59863,5000,Australia/Adelaide
105.136.111.128,105.136.113.255,105.136.0.0,Casablanca,Casablanca-Settat,MA,33.58831,-7.61138,,Africa/Casablanca
101.190.235.107,101.190.235.107,101.190.0.0,Lake Cathie,New South Wales,AU,-31.55183,152.85465,2445,Australia/Sydney
101.30.116.192,101.30.117.49,101.30.0.0,Beijing,Beijing,CN,39.9075,116.39723,,Asia/Shanghai
1.198.172.176,1.198.172.179,1.198.0.0,Zhengzhou,Henan,CN,34.75778,113.64861,,Asia/Shanghai
1.2.142.96,1.2.142.99,1.2.0.0,Chiang Khan,Loei,TH,17.89382,101.65997,42110,Asia/Bangkok
1.55.222.31,1.55.222.31,1.55.0.0,Vinh,Nghệ An,VN,18.67337,105.69232,43199,Asia/Bangkok
101.22.77.58,101.22.77.71,101.22.0.0,Tianjin,Tianjin,CN,39.14222,117.17667,,Asia/Shanghai
101.25.40.114,101.25.40.123,101.25.0.0,Tianjin,Tianjin,CN,39.14222,117.17667,,Asia/Shanghai
1.204.31.13,1.204.31.13,1.204.0.0,Guangzhou,Guangdong,CN,23.11667,113.25,,Asia/Shanghai
1.1.129.108,1.1.129.108,1.1.0.0,Phon Charoen,Bueng Kan,TH,18.03143,103.70996,43180,Asia/Bangkok
101.167.102.72,101.167.102.79,101.167.0.0,Townsville,Queensland,AU,-19.26639,146.80569,4810,Australia/Brisbane
1.62.155.249,1.62.155.251,1.62.0.0,Tianjin,Tianjin,CN,39.14222,117.17667,,Asia/Shanghai
101.108.81.40,101.108.81.63,101.108.0.0,Song Phi Nong,Suphanburi,TH,14.22408,100.02094,72110,Asia/Bangkok
102.191.166.136,102.191.166.143,102.191.0.0,Juhaynah,Sohag,EG,26.67418,31.49686,,Africa/Cairo
101.249.20.96,101.249.20.98,101.249.0.0,Rikaze,Tibet,CN,29.25,88.88333,,Asia/Shanghai
104.139.145.0,104.139.151.255,104.139.0.0,Englewood,Colorado,US,39.6123,-104.8799,80111,America/Denver
102.167.173.16,102.167.173.31,102.167.0.0,Chuka,Tharaka - Nithi,KE,-0.33316,37.64587,,Africa/Nairobi
103.65.201.0,103.65.201.255,103.65.0.0,Kathmandu,Bagmati Province,NP,27.70169,85.3206,,Asia/Kathmandu
1.38.63.57,1.38.63.57,1.38.0.0,Hosūr,Tamil Nadu,IN,12.73647,77.83264,562109,Asia/Kolkata
103.146.203.88,103.146.203.123,103.146.0.0,Jakarta,Jakarta,ID,-6.21462,106.84513,,Asia/Jakarta
1.27.32.32,1.27.32.39,1.27.0.0,Qingdao,Shandong,CN,36.06488,120.38042,,Asia/Shanghai
100.2.79.0,100.2.79.23,100.2.0.0,Astoria,New York,US,40.7808,-73.9772,10132,America/New_York
103.157.228.24,103.157.228.27,103.157.0.0,Injambakkam,Tamil Nadu,IN,12.89,80.2313,600119,Asia/Kolkata
1.191.152.230,1.191.152.231,1.191.0.0,Qingdao,Shandong,CN,36.06488,120.38042,,Asia/Shanghai
102.185.217.56,102.185.217.59,102.185.0.0,Az Zarqā,Damietta,EG,31.20864,31.63528,,Africa/Cairo
101.19.136.66,101.19.136.67,101.19.0.0,Beijing,Beijing,CN,39.9075,116.39723,,Asia/Shanghai
102.30.235.16,102.30.235.23,102.30.0.0,Tataouine,Tataouine,TN,32.92967,10.45177,,Africa/Tunis
1.53.197.40,1.53.197.43,1.53.0.0,Quận Mười Một,Ho Chi Minh,VN,10.76383,106.64355,91906,Asia/Ho_Chi_Minh
1.189.48.20,1.189.48.23,1.189.0.0,Tianjin,Tianjin,CN,39.14222,117.17667,,Asia/Shanghai
101.67.93.44,101.67.93.51,101.67.0.0,Hangzhou,Zhejiang,CN,30.29365,120.16142,,Asia/Shanghai
1.81.170.232,1.81.170.235,1.81.0.0,Xiamen,Fujian,CN,24.47979,118.08187,,Asia/Shanghai
101.174.170.242,101.174.170.243,101.174.0.0,Sydney,New South Wales,AU,-33.748,151.2253,2086,Australia/Sydney
1.41.249.236,1.41.249.255,1.41.0.0,Sydney,New South Wales,AU,-33.86785,151.20732,1001,Australia/Sydney
101.166.100.28,101.166.100.29,101.166.0.0,Emerald Beach,New South Wales,AU,-30.16388,153.1819,2456,Australia/Sydney
1.4.129.120,1.4.129.133,1.4.0.0,Udon Thani,Udon Thani,TH,17.41567,102.78589,41000,Asia/Bangkok
101.183.46.144,101.183.46.151,101.183.0.0,Lowesdale,New South Wales,AU,-35.8318,146.3512,2646,Australia/Sydney
104.28.66.129,104.28.66.136,104.28.0.0,Hong Kong,Central and Western,HK,22.27832,114.17469,,Asia/Hong_Kong
1.204.250.92,1.204.250.92,1.204.0.0,Guangzhou,Guangdong,CN,23.11667,113.25,,Asia/Shanghai
102.6.11.172,102.6.11.175,102.6.0.0,Kisumu,Kisumu,KE,-0.10221,34.76171,,Africa/Nairobi
105.106.158.224,105.106.158.237,105.106.0.0,Constantine,Constantine,DZ,36.343,6.6462,25002,Africa/Algiers
101.21.115.40,101.21.115.47,101.21.0.0,Hebei,Beijing,CN,39.81521,115.93068,,Asia/Shanghai
101.136.110.25,101.136.110.55,101.136.0.0,Taipei,Taiwan,TW,25.04776,121.53185,,Asia/Taipei
102.189.190.12,102.189.190.15,102.189.0.0,Alexandria,Alexandria,EG,31.20176,29.91582,,Africa/Cairo
1.225.79.0,1.225.79.255,1.225.0.0,Seoul,Seoul,KR,37.5676,126.9216,03706,Asia/Seoul
101.207.31.94,101.207.31.107,101.207.0.0,Chengdu,Sichuan,CN,30.66667,104.06667,,Asia/Shanghai
101.26.112.140,101.26.112.143,101.26.0.0,Qingdao,Shandong,CN,36.06488,120.38042,,Asia/Shanghai
1.204.232.26,1.204.232.28,1.204.0.0,Guiyang,Guizhou,CN,26.58333,106.71667,,Asia/Shanghai
1.50.135.113,1.50.135.114,1.50.0.0,Guangzhou,Guangdong,CN,23.11667,113.25,,Asia/Shanghai
101.31.83.0,101.31.83.31,101.31.0.0,Tianjin,Tianjin,CN,39.14222,117.17667,,Asia/Shanghai
1.182.101.153,1.182.101.153,1.182.0.0,Hohhot,Inner Mongolia,CN,40.81056,111.65222,,Asia/Shanghai
1.199.71.6,1.199.71.7,1.199.0.0,Xiamen,Fujian,CN,24.47979,118.08187,,Asia/Shanghai
105.106.23.240,105.106.23.255,105.106.0.0,Tolga,Biskra,DZ,34.6783,5.2874,07051,Africa/Algiers
103.9.54.25,103.9.54.25,103.9.0.0,Sydney,New South Wales,AU,-33.86785,151.20732,1001,Australia/Sydney
100.19.255.0,100.19.255.255,100.19.0.0,Reading,Pennsylvania,US,40.33565,-75.92687,19602,America/New_York
1.190.170.85,1.190.170.89,1.190.0.0,Harbin,Heilongjiang,CN,45.75,126.65,,Asia/Shanghai
101.27.207.140,101.27.207.143,101.27.0.0,Qingdao,Shandong,CN,36.06488,120.38042,,Asia/Shanghai
101.43.62.212,101.43.62.239,101.43.0.0,Shanghai,Shanghai,CN,31.22222,121.45806,,Asia/Shanghai
104.240.53.224,104.240.53.237,104.240.0.0,Gallup,New Mexico,US,35.5042,-108.8317,87319,America/Denver
103.2.249.174,103.2.249.174,103.2.0.0,Matsumoto,Nagano,JP,36.1735,137.9518,399-0037,Asia/Tokyo
101.16.228.136,101.16.228.137,101.16.0.0,Xiamen,Fujian,CN,24.47979,118.08187,,Asia/Shanghai
1.182.112.104,1.182.112.105,1.182.0.0,Chengdu,Sichuan,CN,30.66667,104.06667,,Asia/Shanghai
1.158.102.224,1.158.102.224,1.158.0.0,Murrays Beach,New South Wales,AU,-33.1175,151.62116,2281,Australia/Sydney
101.249.82.76,101.249.82.76,101.249.0.0,Nanjing,Jiangsu,CN,32.06167,118.77778,,Asia/Shanghai
1.0.244.125,1.0.244.125,1.0.0.0,Ko Samui,Surat Thani,TH,9.53567,99.93567,84140,Asia/Bangkok
101.66.64.187,101.66.64.189,101.66.0.0,Tianjin,Tianjin,CN,39.14222,117.17667,,Asia/Shanghai
101.20.109.12,101.20.109.15,101.20.0.0,Shenyang,Liaoning,CN,41.79222,123.43278,,Asia/Shanghai
101.249.67.131,101.249.67.132,101.249.0.0,Rikaze,Tibet,CN,29.25,88.88333,,Asia/Shanghai
104.192.104.233,104.192.104.233,104.192.0.0,Jacksonville,Illinois,US,39.73394,-90.22901,62650,America/Chicago
102.166.177.226,102.166.177.249,102.166.0.0,Nairobi,Nairobi Area,KE,-1.28333,36.81667,,Africa/Nairobi
1.71.185.0,1.71.185.31,1.71.0.0,Hangzhou,Zhejiang,CN,30.29365,120.16142,,Asia/Shanghai
101.64.89.192,101.64.89.197,101.64.0.0,Tianjin,Tianjin,CN,39.14222,117.17667,,Asia/Shanghai
1.53.6.108,1.53.6.111,1.53.0.0,Ho Chi Minh City,Ho Chi Minh,VN,10.82302,106.62965,71606,Asia/Ho_Chi_Minh
101.17.149.134,101.17.149.135,101.17.0.0,Qingdao,Shandong,CN,36.06488,120.38042,,Asia/Shanghai
101.51.45.108,101.51.45.127,101.51.0.0,Ubon Ratchathani,Ubon Ratchathani,TH,15.23844,104.84866,33130,Asia/Bangkok
1.28.153.48,1.28.153.51,1.28.0.0,Tianjin,Tianjin,CN,39.14222,117.17667,,Asia/Shanghai
104.38.41.0,104.38.41.255,104.38.0.0,State College,Pennsylvania,US,40.7997,-77.8623,16802,America/New_York
1.190.173.224,1.190.173.239,1.190.0.0,Harbin,Heilongjiang,CN,45.75,126.65,,Asia/Shanghai
102.106.176.233,102.106.176.235,102.106.0.0,Sousse,Sūsah,TN,35.82539,10.63699,,Africa/Tunis
1.26.121.36,1.26.121.39,1.26.0.0,Xiamen,Fujian,CN,24.47979,118.08187,,Asia/Shanghai
104.54.103.194,104.54.103.195,104.54.0.0,Nevada,Missouri,US,37.83921,-94.35467,64772,America/Chicago
101.112.182.20,101.112.182.23,101.112.0.0,Adelaide,South Australia,AU,-34.88744,138.5695,5008,Australia/Adelaide
1.182.126.244,1.182.126.247,1.182.0.0,Guangzhou,Guangdong,CN,23.11667,113.25,,Asia/Shanghai
101.180.224.200,101.180.224.207,101.180.0.0,Launceston,Tasmania,AU,-41.47134,147.15954,7249,Australia/Hobart
102.164.208.68,102.164.208.71,102.164.0.0,Piet Retief,Mpumalanga,ZA,-27,30.8,2382,Africa/Johannesburg
1.62.40.146,1.62.40.146,1.62.0.0,Qingdao,Shandong,CN,36.06488,120.38042,,Asia/Shanghai
100.41.226.89,100.41.226.89,100.41.0.0,Philadelphia,Pennsylvania,US,39.95233,-75.16379,19099,America/New_York
101.249.50.67,101.249.50.67,101.249.0.0,Nanjing,Jiangsu,CN,32.06167,118.77778,,Asia/Shanghai
1.50.142.86,1.50.142.86,1.50.0.0,Chengdu,Sichuan,CN,30.66667,104.06667,,Asia/Shanghai
1.207.19.252,1.207.19.253,1.207.0.0,Hangzhou,Zhejiang,CN,30.29365,120.16142,,Asia/Shanghai
1.197.80.17,1.197.80.17,1.197.0.0,Nanjing,Jiangsu,CN,32.06167,118.77778,,Asia/Shanghai
1.2.198.112,1.2.198.119,1.2.0.0,Phetchabun,Phetchabun,TH,16.41904,101.16056,67000,Asia/Bangkok
102.120.7.116,102.120.7.191,102.120.0.0,Khartoum,Khartoum,SD,15.55177,32.53241,,Africa/Khartoum
1.158.3.160,1.158.3.160,1.158.0.0,Harrismith,Western Australia,AU,-32.93571,117.8609,6361,Australia/Perth
1.49.197.51,1.49.197.51,1.49.0.0,Guangzhou,Guangdong,CN,23.11667,113.25,,Asia/Shanghai
101.30.64.36,101.30.64.39,101.30.0.0,Xiamen,Fujian,CN,24.47979,118.08187,,Asia/Shanghai
1.206.255.118,1.206.255.119,1.206.0.0,Guangzhou,Guangdong,CN,23.11667,113.25,,Asia/Shanghai
101.137.223.188,101.137.223.191,101.137.0.0,Taipei,Taiwan,TW,25.04776,121.53185,,Asia/Taipei
101.183.138.152,101.183.138.152,101.183.0.0,Mackay,Queensland,AU,-21.15345,149.16554,9943,Australia/Brisbane
1.20.151.32,1.20.151.47,1.20.0.0,Wang Saphung,Loei,TH,17.30097,101.7685,42130,Asia/Bangkok
104.160.135.32,104.160.135.33,104.160.0.0,Hong Kong,Central and Western,HK,22.27832,114.17469,,Asia/Hong_Kong
104.4.116.234,104.4.116.234,104.4.0.0,Columbus,Georgia,US,32.473,-84.9795,31901,America/New_York
1.63.51.242,1.63.51.242,1.63.0.0,Qingdao,Shandong,CN,36.06488,120.38042,,Asia/Shanghai
1.204.149.26,1.204.149.30,1.204.0.0,Guiyang,Guizhou,CN,26.58333,106.71667,,Asia/Shanghai
1.66.40.0,1.66.40.95,1.66.0.0,Osaka,Ōsaka,JP,34.69374,135.50218,543-0062,Asia/Tokyo
101.179.43.160,101.179.43.161,101.179.0.0,Adelaide,South Australia,AU,-34.78905,138.6079,5107,Australia/Adelaide
101.66.102.14,101.66.102.15,101.66.0.0,Xiamen,Fujian,CN,24.47979,118.08187,,Asia/Shanghai
1.20.140.158,1.20.140.159,1.20.0.0,Nakhon Sawan,Nakhon Sawan,TH,15.70472,100.13717,60000,Asia/Bangkok
1.26.28.216,1.26.28.223,1.26.0.0,Tianjin,Tianjin,CN,39.14222,117.17667,,Asia/Shanghai
1.205.150.28,1.205.150.28,1.205.0.0,Hangzhou,Zhejiang,CN,30.29365,120.16142,,Asia/Shanghai
101.183.144.56,101.183.144.59,101.183.0.0,White Rock,Queensland,AU,-16.97438,145.7633,4868,Australia/Brisbane
103.250.140.62,103.250.140.62,103.250.0.0,Singapore,,SG,1.28967,103.85007,018989,Asia/Singapore
103.225.100.0,103.225.100.167,103.225.0.0,Panaji,Goa,IN,15.49574,73.82624,403101,Asia/Kolkata
101.162.84.168,101.162.84.171,101.162.0.0,Townsville,Queensland,AU,-19.26639,146.80569,4810,Australia/Brisbane
101.20.10.135,101.20.10.135,101.20.0.0,Tianjin,Tianjin,CN,39.14222,117.17667,,Asia/Shanghai
104.220.183.172,104.220.184.193,104.220.0.0,Woodland,California,US,38.6808,-121.7411,95776,America/Los_Angeles
1.122.171.248,1.122.171.251,1.122.0.0,Reinscourt,Western Australia,AU,-33.65351,115.40793,6280,Australia/Perth
1.69.243.96,1.69.243.99,1.69.0.0,Shanxi,Hunan,CN,28.03167,110.95444,,Asia/Shanghai
1.30.73.227,1.30.73.232,1.30.0.0,Wenzhou,Zhejiang,CN,27.99942,120.66682,,Asia/Shanghai
1.189.207.158,1.189.207.159,1.189.0.0,Beijing,Beijing,CN,39.9075,116.39723,,Asia/Shanghai
103.134.165.0,103.134.166.255,103.134.0.0,Pimpri,Maharashtra,IN,18.6532,73.7896,411035,Asia/Kolkata
102.188.3.0,102.188.3.19,102.188.0.0,Cairo,Cairo,EG,30.06263,31.24967,,Africa/Cairo
1.1.141.36,1.1.141.55,1.1.0.0,Si Racha,Chon Buri,TH,13.17372,100.93111,20110,Asia/Bangkok
102.21.120.0,102.21.120.255,102.21.0.0,Toamasina,Atsinanana,MG,-18.1492,49.40234,,Indian/Antananarivo
1.69.76.248,1.69.76.251,1.69.0.0,Chengdu,Sichuan,CN,30.66667,104.06667,,Asia/Shanghai
1.49.192.126,1.49.192.127,1.49.0.0,Chengdu,Sichuan,CN,30.66667,104.06667,,Asia/Shanghai
101.207.151.184,101.207.151.185,101.207.0.0,Chengdu,Sichuan,CN,30.66667,104.06667,,Asia/Shanghai
104.169.170.50,104.169.170.51,104.169.0.0,Chapel Hill,North Carolina,US,35.9182,-79.0035,27517,America/New_York
1.194.153.38,1.194.153.39,1.194.0.0,Henan,Heilongjiang,CN,47.9658,126.01958,,Asia/Shanghai
103.146.246.0,103.146.247.255,103.146.0.0,Serpong,West Java,ID,-6.31694,106.66417,,Asia/Jakarta
1.204.29.203,1.204.29.204,1.204.0.0,Guiyang,Guizhou,CN,26.58333,106.71667,,Asia/Shanghai
101.30.186.157,101.30.186.185,101.30.0.0,Beijing,Beijing,CN,39.9075,116.39723,,Asia/Shanghai
102.1.149.248,102.1.150.31,102.1.0.0,Nairobi,Nairobi Area,KE,-1.28333,36.81667,,Africa/Nairobi
102.158.47.224,102.158.47.231,102.158.0.0,Port el Kantaoui,Sūsah,TN,35.89239,10.59434,,Africa/Tunis
102.158.237.200,102.158.237.215,102.158.0.0,Tunis,Tūnis,TN,36.81897,10.16579,,Africa/Tunis
101.20.107.40,101.20.107.47,101.20.0.0,Langfang,Hebei,CN,39.50972,116.69472,,Asia/Shanghai
104.9.158.52,104.9.158.55,104.9.0.0,Brunswick,Georgia,US,31.2804,-81.5305,31525,America/New_York
1.30.13.152,1.30.13.181,1.30.0.0,Tianjin,Tianjin,CN,39.14222,117.17667,,Asia/Shanghai
1.187.13.23,1.187.13.23,1.187.0.0,Mumbai,Maharashtra,IN,19.07283,72.88261,400070,Asia/Kolkata
102.25.221.64,102.25.221.127,102.25.0.0,As Sanad,Gafsa,TN,34.4628,9.26404,,Africa/Tunis
1.190.14.52,1.190.14.52,1.190.0.0,Qingdao,Shandong,CN,36.06488,120.38042,,Asia/Shanghai
102.5.166.184,102.5.166.191,102.5.0.0,Kitale,Trans Nzoia,KE,1.01572,35.00622,,Africa/Nairobi
102.52.116.240,102.52.116.241,102.52.0.0,Meknès,Fès-Meknès,MA,33.89352,-5.54727,,Africa/Casablanca
1.25.20.71,1.25.20.71,1.25.0.0,Beijing,Beijing,CN,39.9075,116.39723,,Asia/Shanghai
1.52.56.16,1.52.56.16,1.52.0.0,Cà Mau,Cà Mau,VN,9.17682,105.15242,98150,Asia/Ho_Chi_Minh
101.64.124.84,101.64.124.85,101.64.0.0,Tianjin,Tianjin,CN,39.14222,117.17667,,Asia/Shanghai
1.180.226.109,1.180.226.109,1.180.0.0,Nanjing,Jiangsu,CN,32.06167,118.77778,,Asia/Shanghai
101.248.142.69,101.248.142.69,101.248.0.0,Guangzhou,Guangdong,CN,23.11667,113.25,,Asia/Shanghai
104.247.130.135,104.247.130.255,104.247.0.0,Old Fig Garden,California,US,36.79885,-119.80515,93704,America/Los_Angeles
1.41.35.0,1.41.35.35,1.41.0.0,Sydney,New South Wales,AU,-33.8667,150.95,1860,Australia/Sydney
1.156.208.216,1.156.208.223,1.156.0.0,Alexandra Headland,Queensland,AU,-26.67154,153.10058,4572,Australia/Brisbane
101.27.129.16,101.27.129.44,101.27.0.0,Tianjin,Tianjin,CN,39.14222,117.17667,,Asia/Shanghai
101.179.163.16,101.179.163.19,101.179.0.0,Caravonica,Queensland,AU,-16.87063,145.68099,4878,Australia/Brisbane
105.106.14.0,105.106.14.31,105.106.0.0,Khenchela,Khenchela,DZ,35.3789,7.0454,40002,Africa/Algiers
102.59.147.128,102.59.147.159,102.59.0.0,Ain Sukhna,Suez,EG,29.60018,32.31671,,Africa/Cairo
101.7.155.160,101.7.155.207,101.7.0.0,Shanghai,Shanghai,CN,31.22222,121.45806,,Asia/Shanghai
101.67.92.104,101.67.92.107,101.67.0.0,Qingdao,Shandong,CN,36.06488,120.38042,,Asia/Shanghai
1.48.50.143,1.48.50.143,1.48.0.0,Guangzhou,Guangdong,CN,23.11667,113.25,,Asia/Shanghai
101.180.66.144,101.180.66.163,101.180.0.0,Sydney,New South Wales,AU,-33.6587,151.2985,2104,Australia/Sydney
1.204.45.52,1.204.45.52,1.204.0.0,Hangzhou,Zhejiang,CN,30.29365,120.16142,,Asia/Shanghai
102.11.141.200,102.11.151.127,102.11.0.0,Alexandria,Alexandria,EG,31.20176,29.91582,,Africa/Cairo
1.190.217.96,1.190.217.99,1.190.0.0,Harbin,Heilongjiang,CN,45.75,126.65,,Asia/Shanghai
1.84.2.188,1.84.2.188,1.84.0.0,Hangzhou,Zhejiang,CN,30.29365,120.16142,,Asia/Shanghai
102.0.253.28,102.0.253.31,102.0.0.0,Mombasa,Mombasa,KE,-4.05466,39.66359,,Africa/Nairobi
1.197.248.164,1.197.248.169,1.197.0.0,Hangzhou,Zhejiang,CN,30.29365,120.16142,,Asia/Shanghai
1.66.29.192,1.66.30.63,1.66.0.0,Nagoya,Aichi,JP,35.18147,136.90641,460-0002,Asia/Tokyo
103.16.46.36,103.16.46.37,103.16.0.0,Dharapuram,Tamil Nadu,IN,10.73828,77.53223,641604,Asia/Kolkata
102.186.200.232,102.186.200.239,102.186.0.0,Naja' Ḥammādī,Qena,EG,26.04949,32.24142,,Africa/Cairo
1.60.41.188,1.60.41.190,1.60.0.0,Qingdao,Shandong,CN,36.06488,120.38042,,Asia/Shanghai
104.7.60.52,104.7.60.64,104.7.0.0,Winnfield,Louisiana,US,31.92558,-92.64131,71483,America/Chicago
102.28.14.64,102.28.14.255,102.28.0.0,Tunis,Tūnis,TN,36.81897,10.16579,,Africa/Tunis
102.83.88.8,102.83.88.15,102.83.0.0,Mbale,Eastern Region,UG,1.08209,34.17503,,Africa/Kampala
1.84.213.30,1.84.213.30,1.84.0.0,Hangzhou,Zhejiang,CN,30.29365,120.16142,,Asia/Shanghai
1.54.113.171,1.54.113.171,1.54.0.0,Hà Đông,Hanoi,VN,20.97136,105.77876,12150,Asia/Bangkok
101.16.117.42,101.16.117.43,101.16.0.0,Chengdu,Sichuan,CN,30.66667,104.06667,,Asia/Shanghai
101.174.167.56,101.174.167.59,101.174.0.0,Adelaide,South Australia,AU,-34.92866,138.59863,5000,Australia/Adelaide
101.184.170.38,101.184.170.39,101.184.0.0,Sydney,New South Wales,AU,-33.86785,151.20732,1001,Australia/Sydney
105.107.170.240,105.107.170.255,105.107.0.0,Chelghoum el Aïd,Mila,DZ,36.227,6.0474,43025,Africa/Algiers
1.207.125.200,1.207.125.200,1.207.0.0,Hangzhou,Zhejiang,CN,30.29365,120.16142,,Asia/Shanghai
1.182.38.240,1.182.38.243,1.182.0.0,Beijing,Beijing,CN,39.9075,116.39723,,Asia/Shanghai
102.168.148.128,102.168.148.159,102.168.0.0,Msaken,Sūsah,TN,35.72917,10.58082,,Africa/Tunis
1.195.211.72,1.195.211.72,1.195.0.0,Chengdu,Sichuan,CN,30.66667,104.06667,,Asia/Shanghai
1.50.253.250,1.50.253.251,1.50.0.0,Guangzhou,Guangdong,CN,23.11667,113.25,,Asia/Shanghai
1.205.143.64,1.205.143.64,1.205.0.0,Chengdu,Sichuan,CN,30.66667,104.06667,,Asia/Shanghai
1.180.227.24,1.180.227.24,1.180.0.0,Shanghai,Shanghai,CN,31.22222,121.45806,,Asia/Shanghai
1.48.43.69,1.48.43.69,1.48.0.0,Chengdu,Sichuan,CN,30.66667,104.06667,,Asia/Shanghai
101.73.129.184,101.73.129.187,101.73.0.0,Xiamen,Fujian,CN,24.47979,118.08187,,Asia/Shanghai
1.181.230.250,1.181.230.252,1.181.0.0,Chengdu,Sichuan,CN,30.66667,104.06667,,Asia/Shanghai
101.146.0.0,101.146.255.255,101.146.0.0,Beijing,Beijing,CN,39.9075,116.39723,,Asia/Shanghai
103.23.166.0,103.23.167.255,103.23.0.0,Sydney,New South Wales,AU,-33.86785,151.20732,1001,Australia/Sydney
1.198.150.17,1.198.150.19,1.198.0.0,Guangzhou,Guangdong,CN,23.11667,113.25,,Asia/Shanghai
1.58.68.252,1.58.68.255,1.58.0.0,Jinrongjie,Beijing,CN,39.91222,116.35615,,Asia/Shanghai
101.249.135.203,101.249.135.203,101.249.0.0,Rikaze,Tibet,CN,29.25,88.88333,,Asia/Shanghai
101.116.69.192,101.116.69.207,101.116.0.0,Sydney,New South Wales,AU,-33.8699,151.2025,2006,Australia/Sydney
1.60.26.121,1.60.26.121,1.60.0.0,Qingdao,Shandong,CN,36.06488,120.38042,,Asia/Shanghai
1.21.109.80,1.21.109.95,1.21.0.0,Numazu,Shizuoka,JP,35.1208,138.8896,411-0945,Asia/Tokyo
1.70.76.74,1.70.76.74,1.70.0.0,Suzhou,Jiangsu,CN,31.30408,120.59538,,Asia/Shanghai
1.29.27.240,1.29.31.255,1.29.0.0,Tianjin,Tianjin,CN,39.14222,117.17667,,Asia/Shanghai
102.52.120.102,102.52.120.102,102.52.0.0,Meknès,Fès-Meknès,MA,33.89352,-5.54727,,Africa/Casablanca
105.103.30.88,105.103.30.95,105.103.0.0,El Eulma,Sétif,DZ,36.0923,5.6833,19080,Africa/Algiers
103.143.90.0,103.143.90.255,103.143.0.0,Singapore,,SG,1.28967,103.85007,018989,Asia/Singapore
1.2.206.40,1.2.206.43,1.2.0.0,Uttaradit,Uttaradit,TH,17.62557,100.09421,53140,Asia/Bangkok
1.206.82.246,1.206.82.247,1.206.0.0,Chengdu,Sichuan,CN,30.66667,104.06667,,Asia/Shanghai
1.156.248.72,1.156.248.107,1.156.0.0,Brisbane,Queensland,AU,-27.4679,153.0281,9005,Australia/Brisbane
101.109.190.192,101.109.190.231,101.109.0.0,Ratchaburi,Ratchaburi,TH,13.53671,99.81712,70000,Asia/Bangkok
101.25.58.236,101.25.58.237,101.25.0.0,Xiamen,Fujian,CN,24.47979,118.08187,,Asia/Shanghai
101.51.62.8,101.51.62.11,101.51.0.0,Roi Et,Roi Et,TH,16.0567,103.65309,45000,Asia/Bangkok
1.181.178.46,1.181.178.47,1.181.0.0,Xiamen,Fujian,CN,24.47979,118.08187,,Asia/Shanghai
1.200.80.64,1.200.80.71,1.200.0.0,Taichung,Taiwan,TW,24.1469,120.6839,,Asia/Taipei
1.190.189.88,1.190.189.91,1.190.0.0,Harbin,Heilongjiang,CN,45.75,126.65,,Asia/Shanghai
101.28.28.15,101.28.28.31,101.28.0.0,Tianjin,Tianjin,CN,39.14222,117.17667,,Asia/Shanghai
101.182.161.230,101.182.161.230,101.182.0.0,Gold Coast,Queensland,AU,-28.00029,153.43088,4217,Australia/Brisbane
1.69.58.200,1.69.58.203,1.69.0.0,Nanjing,Jiangsu,CN,32.06167,118.77778,,Asia/Shanghai
103.66.210.110,103.66.210.223,103.66.0.0,Chandīgarh,Chandigarh,IN,30.73629,76.7884,160001,Asia/Kolkata
105.133.51.0,105.133.51.63,105.133.0.0,Mediouna,Casablanca-Settat,MA,33.45161,-7.51995,,Africa/Casablanca
1.204.237.228,1.204.237.228,1.204.0.0,Chengdu,Sichuan,CN,30.66667,104.06667,,Asia/Shanghai
101.249.203.67,101.249.203.67,101.249.0.0,Chengdu,Sichuan,CN,30.66667,104.06667,,Asia/Shanghai
1.81.153.248,1.81.153.248,1.81.0.0,Hangzhou,Zhejiang,CN,30.29365,120.16142,,Asia/Shanghai
104.28.50.234,104.28.50.255,104.28.0.0,Tahlequah,Oklahoma,US,35.91537,-94.96996,74464,America/Chicago
1.43.143.208,1.43.144.15,1.43.0.0,Sydney,New South Wales,AU,-33.8678,151.2073,1032,Australia/Sydney
103.133.104.224,103.133.104.225,103.133.0.0,Ho Chi Minh City,Ho Chi Minh,VN,10.82302,106.62965,71606,Asia/Ho_Chi_Minh
101.53.25.0,101.53.25.7,101.53.0.0,Nha Trang,Khánh Hòa,VN,12.24507,109.19432,57150,Asia/Ho_Chi_Minh
1.204.19.13,1.204.19.13,1.204.0.0,Chengdu,Sichuan,CN,30.66667,104.06667,,Asia/Shanghai
1.205.154.78,1.205.154.78,1.205.0.0,Nanjing,Jiangsu,CN,32.06167,118.77778,,Asia/Shanghai
101.73.12.250,101.73.12.251,101.73.0.0,Qingdao,Shandong,CN,36.06488,120.38042,,Asia/Shanghai
1.229.141.0,1.229.141.255,1.229.0.0,Seoul,Seoul,KR,37.5577,127.0279,04713,Asia/Seoul
101.137.227.52,101.137.227.52,101.137.0.0,Hualien City,Taiwan,TW,23.97694,121.60444,,Asia/Taipei
1.10.254.88,1.10.254.94,1.10.0.0,Nakhon Pathom,Nakhon Pathom,TH,13.8196,100.04427,73000,Asia/Bangkok
104.4.252.101,104.4.252.101,104.4.0.0,Thompson's Station,Tennessee,US,35.80201,-86.91139,37179,America/Chicago
104.158.53.34,104.158.53.35,104.158.0.0,Brockville,Ontario,CA,44.59132,-75.68705,K6V,America/Toronto
101.138.106.176,101.138.106.207,101.138.0.0,Kaohsiung,Takao,TW,22.61626,120.31333,,Asia/Taipei
1.55.180.144,1.55.180.145,1.55.0.0,Long Xuyên,An Giang,VN,10.38639,105.43518,90150,Asia/Ho_Chi_Minh
104.169.168.58,104.169.168.59,104.169.0.0,Marion,North Carolina,US,35.68401,-82.00927,28752,America/New_York
1.56.140.92,1.56.140.147,1.56.0.0,Tianjin,Tianjin,CN,39.14222,117.17667,,Asia/Shanghai
1.49.206.238,1.49.206.238,1.49.0.0,Chengdu,Sichuan,CN,30.66667,104.06667,,Asia/Shanghai
100.41.224.74,100.41.224.74,100.41.0.0,Culpeper,Virginia,US,38.47318,-77.99666,22701,America/New_York
102.157.38.90,102.157.38.91,102.157.0.0,El Kef,Kef,TN,36.17424,8.70486,,Africa/Tunis
104.159.192.160,104.159.192.167,104.159.0.0,Winfield,Missouri,US,38.99727,-90.73846,63389,America/Chicago
1.206.14.182,1.206.14.186,1.206.0.0,Guiyang,Guizhou,CN,26.58333,106.71667,,Asia/Shanghai
101.114.202.0,101.114.202.255,101.114.0.0,Melbourne,Victoria,AU,-37.6366,144.8919,3059,Australia/Melbourne
101.191.160.194,101.191.160.195,101.191.0.0,Shell Cove,New South Wales,AU,-34.58994,150.86203,2529,Australia/Sydney
102.158.25.112,102.158.25.119,102.158.0.0,Tunis,Tūnis,TN,36.81897,10.16579,,Africa/Tunis
102.10.50.192,102.10.52.135,102.10.0.0,Alexandria,Alexandria,EG,31.20176,29.91582,,Africa/Cairo
103.43.65.64,103.43.65.127,103.43.0.0,Kumbakonam,Tamil Nadu,IN,10.96209,79.39124,612001,Asia/Kolkata
104.201.69.176,104.201.69.191,104.201.0.0,Burlington,Iowa,US,40.80754,-91.11292,52601,America/Chicago
101.249.188.48,101.249.188.49,101.249.0.0,Beijing,Beijing,CN,39.9075,116.39723,,Asia/Shanghai
102.185.200.48,102.185.200.55,102.185.0.0,Zagazig,Sharqia,EG,30.58768,31.502,,Africa/Cairo
1.252.212.0,1.252.212.255,1.252.0.0,Busan,Busan,KR,35.10168,129.03004,48902,Asia/Seoul
105.105.112.88,105.105.112.95,105.105.0.0,Hammamet,Tébessa,DZ,35.3644,7.9476,12052,Africa/Algiers
1.199.133.158,1.199.133.163,1.199.0.0,Nanjing,Jiangsu,CN,32.06167,118.77778,,Asia/Shanghai
101.66.194.44,101.66.194.44,101.66.0.0,Qingdao,Shandong,CN,36.06488,120.38042,,Asia/Shanghai
101.177.229.56,101.177.229.59,101.177.0.0,Melbourne,Victoria,AU,-37.81105,145.0776,3103,Australia/Melbourne
101.184.170.36,101.184.170.36,101.184.0.0,Muswellbrook,New South Wales,AU,-32.26118,150.89009,2333,Australia/Sydney
101.166.2.77,101.166.2.77,101.166.0.0,Coraki,New South Wales,AU,-28.9926,153.28374,2471,Australia/Sydney
104.134.23.32,104.134.23.63,104.134.0.0,Mountain View,California,US,37.38605,-122.08385,94035,America/Los_Angeles
101.137.94.139,101.137.94.139,101.137.0.0,Taichung,Taiwan,TW,24.1469,120.6839,,Asia/Taipei
101.205.131.222,101.205.131.225,101.205.0.0,Tianjin,Tianjin,CN,39.14222,117.17667,,Asia/Shanghai
104.160.142.14,104.160.142.15,104.160.0.0,São Paulo,São Paulo,BR,-23.5475,-46.63611,01000-000,America/Sao_Paulo
104.53.111.200,104.53.111.201,104.53.0.0,Peoria,Illinois,US,40.6321,-89.6903,61607,America/Chicago
1.183.160.129,1.183.160.129,1.183.0.0,Guangzhou,Guangdong,CN,23.11667,113.25,,Asia/Shanghai
101.25.250.32,101.25.250.87,101.25.0.0,Tianjin,Tianjin,CN,39.14222,117.17667,,Asia/Shanghai
1.120.97.80,1.120.97.111,1.120.0.0,Canberra,Australian Capital Territory,AU,-35.2777,149.1189,0200,Australia/Sydney
104.44.28.83,104.44.28.83,104.44.0.0,Busan,Busan,KR,35.10168,129.03004,48902,Asia/Seoul
1.58.146.186,1.58.146.187,1.58.0.0,Xiamen,Fujian,CN,24.47979,118.08187,,Asia/Shanghai
1.82.183.87,1.82.183.95,1.82.0.0,Chengdu,Sichuan,CN,30.66667,104.06667,,Asia/Shanghai
101.249.205.93,101.249.205.93,101.249.0.0,Rikaze,Tibet,CN,29.25,88.88333,,Asia/Shanghai
1.156.21.10,1.156.21.15,1.156.0.0,Sydney,New South Wales,AU,-33.8678,151.2073,1032,Australia/Sydney
1.189.186.218,1.189.186.219,1.189.0.0,Maryborough,Queensland,AU,-25.54073,152.70493,4650,Australia/Brisbane
102.44.119.2,102.44.119.4,102.44.0.0,Munūf,Monufia,EG,30.46597,30.93199,,Africa/Cairo
101.20.30.96,101.20.30.107,101.20.0.0,Shenyang,Liaoning,CN,41.79222,123.43278,,Asia/Shanghai
101.180.68.112,101.180.68.119,101.180.0.0,Warnervale,New South Wales,AU,-33.2113,151.53918,2262,Australia/Sydney
101.177.192.94,101.177.192.95,101.177.0.0,Gold Coast,Queensland,AU,-28.00029,153.43088,4217,Australia/Brisbane
1.190.15.216,1.190.15.235,1.190.0.0,Tianjin,Tianjin,CN,39.14222,117.17667,,Asia/Shanghai
102.0.51.224,102.0.51.255,102.0.0.0,Ruiru,Kiambu,KE,-1.14665,36.96087,,Africa/Nairobi
1.58.39.206,1.58.39.207,1.58.0.0,Xiamen,Fujian,CN,24.47979,118.08187,,Asia/Shanghai
101.29.249.176,101.29.249.179,101.29.0.0,Qingdao,Shandong,CN,36.06488,120.38042,,Asia/Shanghai
102.106.125.112,102.106.125.119,102.106.0.0,Erriadh,Madanīn,TN,33.82063,10.85394,,Africa/Tunis
1.205.228.140,1.205.228.147,1.205.0.0,Guizhou,Hubei,CN,30.99695,110.68975,,Asia/Shanghai
1.165.104.192,1.165.104.203,1.165.0.0,Taichung,Taiwan,TW,24.1469,120.6839,,Asia/Taipei
102.30.104.128,102.30.104.191,102.30.0.0,Gabès,Qābis,TN,33.88146,10.0982,,Africa/Tunis
105.106.87.240,105.106.87.243,105.106.0.0,Biskra,Biskra,DZ,34.8053,5.7341,07006,Africa/Algiers
101.140.246.218,101.140.246.231,101.140.0.0,Himeji,Hyōgo,JP,34.8834,134.6233,671-2245,Asia/Tokyo
101.73.196.158,101.73.196.159,101.73.0.0,Xiamen,Fujian,CN,24.47979,118.08187,,Asia/Shanghai
100.45.206.192,100.45.206.255,100.45.0.0,Lake Worth,Florida,US,26.6104,-80.1683,33467,America/New_York
1.60.224.72,1.60.224.87,1.60.0.0,Tianjin,Tianjin,CN,39.14222,117.17667,,Asia/Shanghai
1.196.168.19,1.196.168.255,1.196.0.0,Hangzhou,Zhejiang,CN,30.29365,120.16142,,Asia/Shanghai
104.58.162.184,104.58.162.255,104.58.0.0,El Paso,Texas,US,31.7432,-106.3686,79915,America/Denver
101.103.68.96,101.103.68.127,101.103.0.0,Adelaide,South Australia,AU,-34.92866,138.59863,5000,Australia/Adelaide
1.72.104.96,1.72.104.127,1.72.0.0,Nagoya,Aichi,JP,35.18147,136.90641,460-0002,Asia/Tokyo
102.51.35.64,102.51.35.79,102.51.0.0,Skoura,Drâa-Tafilalet,MA,31.06262,-6.5525,,Africa/Casablanca
1.29.22.32,1.29.22.39,1.29.0.0,Xiamen,Fujian,CN,24.47979,118.08187,,Asia/Shanghai
102.188.252.104,102.188.252.111,102.188.0.0,Ismailia,Ismailia,EG,30.60427,32.27225,,Africa/Cairo
102.157.89.100,102.157.89.103,102.157.0.0,Bizerte,Banzart,TN,37.27442,9.87391,,Africa/Tunis
101.20.18.8,101.20.18.12,101.20.0.0,Shenyang,Liaoning,CN,41.79222,123.43278,,Asia/Shanghai
101.136.189.5,101.136.189.5,101.136.0.0,Taichung,Taiwan,TW,24.1469,120.6839,,Asia/Taipei
1.53.5.104,1.53.5.111,1.53.0.0,La Gi,Bình Thuận,VN,10.65993,107.77206,77675,Asia/Ho_Chi_Minh
105.107.25.138,105.107.25.139,105.107.0.0,Jijel,Jijel,DZ,36.821,5.76352,18000,Africa/Algiers
101.167.81.0,101.167.81.1,101.167.0.0,Millchester,Queensland,AU,-20.09217,146.27875,4820,Australia/Brisbane
1.2.245.232,1.2.245.247,1.2.0.0,Sam Ngam,Phichit,TH,16.50653,100.20497,66140,Asia/Bangkok
1.70.240.97,1.70.240.98,1.70.0.0,Suzhou,Jiangsu,CN,31.30408,120.59538,,Asia/Shanghai
1.62.200.98,1.62.200.104,1.62.0.0,Beijing,Beijing,CN,39.9075,116.39723,,Asia/Shanghai
1.69.241.136,1.69.241.139,1.69.0.0,Chengdu,Sichuan,CN,30.66667,104.06667,,Asia/Shanghai
1.187.25.166,1.187.25.166,1.187.0.0,Mumbai,Maharashtra,IN,19.07283,72.88261,400070,Asia/Kolkata
103.7.163.10,103.7.163.11,103.7.0.0,Sisophon,Banteay Meanchey,KH,13.58588,102.97369,,Asia/Phnom_Penh
1.183.170.216,1.183.170.216,1.183.0.0,Guangzhou,Guangdong,CN,23.11667,113.25,,Asia/Shanghai
1.24.184.25,1.24.184.25,1.24.0.0,Qingdao,Shandong,CN,36.06488,120.38042,,Asia/Shanghai
101.108.24.60,101.108.24.63,101.108.0.0,Bang Saphan,Prachuap Khiri Khan,TH,11.21259,99.51167,77140,Asia/Bangkok
101.116.46.160,101.116.46.160,101.116.0.0,Melbourne,Victoria,AU,-37.814,144.9633,8386,Australia/Melbourne
104.179.42.124,104.179.42.151,104.179.0.0,El Paso,Texas,US,31.8383,-106.5364,79912,America/Denver
101.136.62.120,101.136.62.121,101.136.0.0,Kaohsiung,Takao,TW,22.61626,120.31333,,Asia/Taipei
103.122.168.0,103.122.168.255,103.122.0.0,Delhi,Delhi,IN,28.6063,77.30449,110091,Asia/Kolkata
102.185.217.124,102.185.217.127,102.185.0.0,Alexandria,Alexandria,EG,31.20176,29.91582,,Africa/Cairo
104.205.78.0,104.205.78.63,104.205.0.0,Edmonton,Alberta,CA,53.5931,-113.4077,T5A,America/Edmonton
101.53.29.192,101.53.30.255,101.53.0.0,Ho Chi Minh City,Ho Chi Minh,VN,10.82302,106.62965,71606,Asia/Ho_Chi_Minh
103.140.251.142,103.140.251.143,103.140.0.0,Biên Hòa,Đồng Nai,VN,10.94469,106.82432,76199,Asia/Ho_Chi_Minh
1.206.11.124,1.206.11.124,1.206.0.0,Guiyang,Guizhou,CN,26.58333,106.71667,,Asia/Shanghai
1.204.182.9,1.204.182.9,1.204.0.0,Guiyang,Guizhou,CN,26.58333,106.71667,,Asia/Shanghai
101.138.74.72,101.138.74.131,101.138.0.0,Taipei,Taiwan,TW,25.04776,121.53185,,Asia/Taipei
101.73.128.174,101.73.128.207,101.73.0.0,Beijing,Beijing,CN,39.9075,116.39723,,Asia/Shanghai
101.161.90.56,101.161.90.63,101.161.0.0,Melbourne,Victoria,AU,-37.77725,144.80175,3022,Australia/Melbourne
105.106.31.0,105.106.31.15,105.106.0.0,Batna,Batna,DZ,35.4913,6.0986,05099,Africa/Algiers
1.43.85.168,1.43.85.171,1.43.0.0,Sydney,New South Wales,AU,-34.05863,151.14672,2230,Australia/Sydney
101.177.15.208,101.177.15.215,101.177.0.0,Townsville,Queensland,AU,-19.26639,146.80569,4810,Australia/Brisbane
101.64.127.132,101.64.127.139,101.64.0.0,Tianjin,Tianjin,CN,39.14222,117.17667,,Asia/Shanghai
1.236.169.0,1.236.169.255,1.236.0.0,Goyang-si,Gyeonggi-do,KR,37.6018,126.7935,10135,Asia/Seoul
1.58.10.76,1.58.10.77,1.58.0.0,Xiamen,Fujian,CN,24.47979,118.08187,,Asia/Shanghai
101.64.40.235,101.64.40.235,101.64.0.0,Xiamen,Fujian,CN,24.47979,118.08187,,Asia/Shanghai
101.5.142.54,101.5.142.67,101.5.0.0,Beijing,Beijing,CN,39.9075,116.39723,,Asia/Shanghai
1.4.231.84,1.4.231.95,1.4.0.0,Udon Thani,Udon Thani,TH,17.41567,102.78589,41000,Asia/Bangkok
101.109.34.46,101.109.34.46,101.109.0.0,Chanthaburi,Chanthaburi,TH,12.60961,102.10447,22000,Asia/Bangkok
1.197.42.241,1.197.42.241,1.197.0.0,Hangzhou,Zhejiang,CN,30.29365,120.16142,,Asia/Shanghai
101.137.133.80,101.137.133.95,101.137.0.0,Taibao,Taiwan,TW,23.45944,120.33222,,Asia/Taipei
101.16.196.104,101.16.196.112,101.16.0.0,Chengdu,Sichuan,CN,30.66667,104.06667,,Asia/Shanghai
1.25.20.18,1.25.20.23,1.25.0.0,Qingdao,Shandong,CN,36.06488,120.38042,,Asia/Shanghai
103.130.207.0,103.130.207.255,103.130.0.0,Kathmandu,Bagmati Province,NP,27.70169,85.3206,,Asia/Kathmandu
102.22.95.152,102.22.95.155,102.22.0.0,Wartburg,KwaZulu-Natal,ZA,-29.4379,30.4299,4163,Africa/Johannesburg
102.191.9.144,102.191.9.149,102.191.0.0,Cairo,Cairo,EG,30.06263,31.24967,,Africa/Cairo
101.20.151.175,101.20.151.179,101.20.0.0,Tianjin,Tianjin,CN,39.14222,117.17667,,Asia/Shanghai
101.187.178.213,101.187.178.217,101.187.0.0,Seven Mile Beach,Tasmania,AU,-42.85863,147.50532,7170,Australia/Hobart
104.200.45.50,104.200.45.51,104.200.0.0,Newport Beach,California,US,33.61891,-117.92895,92659,America/Los_Angeles
1.196.82.232,1.196.82.241,1.196.0.0,Hangzhou,Zhejiang,CN,30.29365,120.16142,,Asia/Shanghai
100.45.87.192,100.45.87.255,100.45.0.0,Rochester,New York,US,43.1501,-77.589,14607,America/New_York
1.61.130.102,1.61.130.103,1.61.0.0,Qingdao,Shandong,CN,36.06488,120.38042,,Asia/Shanghai
101.128.243.164,101.128.243.164,101.128.0.0,Morioka,Iwate,JP,39.7,141.15,020-0015,Asia/Tokyo
1.224.81.0,1.224.81.255,1.224.0.0,Yeosu,Jeollanam-do,KR,34.8812,127.5849,59602,Asia/Seoul
101.173.96.120,101.173.96.127,101.173.0.0,Melbourne,Victoria,AU,-37.77535,145.00455,3070,Australia/Melbourne
102.2.227.160,102.2.227.191,102.2.0.0,Ruiru,Kiambu,KE,-1.14665,36.96087,,Africa/Nairobi
104.56.125.32,104.56.125.63,104.56.0.0,Lake Providence,Louisiana,US,32.80499,-91.17098,71254,America/Chicago
104.48.213.32,104.48.213.47,104.48.0.0,Karnes City,Texas,US,28.88498,-97.90084,78118,America/Chicago
102.184.163.172,102.184.163.204,102.184.0.0,Cairo,Cairo,EG,30.06263,31.24967,,Africa/Cairo
104.168.107.46,104.168.107.55,104.168.0.0,New York City,New York,US,40.71427,-74.00597,10004,America/New_York
102.78.13.48,102.78.13.51,102.78.0.0,Bab Taza,Tanger-Tetouan-Al Hoceima,MA,35.06166,-5.19828,,Africa/Casablanca
101.16.41.208,101.16.41.243,101.16.0.0,Tianjin,Tianjin,CN,39.14222,117.17667,,Asia/Shanghai
1.205.225.56,1.205.225.57,1.205.0.0,Chengdu,Sichuan,CN,30.66667,104.06667,,Asia/Shanghai
101.249.113.124,101.249.113.125,101.249.0.0,Rikaze,Tibet,CN,29.25,88.88333,,Asia/Shanghai
1.204.209.11,1.204.209.11,1.204.0.0,Guangzhou,Guangdong,CN,23.11667,113.25,,Asia/Shanghai
103.41.100.56,103.41.100.63,103.41.0.0,Mirzāpur,Uttar Pradesh,IN,25.1449,82.56534,231312,Asia/Kolkata
1.181.182.1,1.181.182.3,1.181.0.0,Chengdu,Sichuan,CN,30.66667,104.06667,,Asia/Shanghai
103.104.69.64,103.104.69.255,103.104.0.0,Putatan,Sabah,MY,5.9258,116.06094,88721,Asia/Kuching
101.31.46.144,101.31.46.175,101.31.0.0,Beijing,Beijing,CN,39.9075,116.39723,,Asia/Shanghai
101.113.70.104,101.113.70.255,101.113.0.0,Sydney,New South Wales,AU,-33.9425,150.9377,1875,Australia/Sydney
101.20.96.176,101.20.96.181,101.20.0.0,Tianjin,Tianjin,CN,39.14222,117.17667,,Asia/Shanghai
102.168.95.190,102.168.95.190,102.168.0.0,Sousse,Sūsah,TN,35.82539,10.63699,,Africa/Tunis
102.7.71.144,102.7.71.159,102.7.0.0,Lodwar,Turkana,KE,3.11988,35.59642,,Africa/Nairobi
1.181.221.89,1.181.221.94,1.181.0.0,Hangzhou,Zhejiang,CN,30.29365,120.16142,,Asia/Shanghai
1.206.234.21,1.206.234.21,1.206.0.0,Hangzhou,Zhejiang,CN,30.29365,120.16142,,Asia/Shanghai
101.248.157.37,101.248.157.37,101.248.0.0,Chengdu,Sichuan,CN,30.66667,104.06667,,Asia/Shanghai
102.170.220.16,102.170.220.23,102.170.0.0,As Sanad,Gafsa,TN,34.4628,9.26404,,Africa/Tunis
105.107.96.0,105.107.96.3,105.107.0.0,Aïn Kercha,Oum el Bouaghi,DZ,35.92472,6.69528,04006,Africa/Algiers
1.49.152.182,1.49.152.183,1.49.0.0,Chengdu,Sichuan,CN,30.66667,104.06667,,Asia/Shanghai
101.31.210.146,101.31.210.147,101.31.0.0,Qingdao,Shandong,CN,36.06488,120.38042,,Asia/Shanghai
101.162.86.218,101.162.86.239,101.162.0.0,Townsville,Queensland,AU,-19.29718,146.76603,4814,Australia/Brisbane
101.69.90.234,101.69.90.234,101.69.0.0,Hangzhou,Zhejiang,CN,30.29365,120.16142,,Asia/Shanghai
1.84.73.208,1.84.73.210,1.84.0.0,Chengdu,Sichuan,CN,30.66667,104.06667,,Asia/Shanghai
105.106.204.0,105.106.204.195,105.106.0.0,Constantine,Constantine,DZ,36.343,6.6462,25002,Africa/Algiers
1.84.173.48,1.84.173.63,1.84.0.0,Beijing,Beijing,CN,39.9075,116.39723,,Asia/Shanghai
1.189.143.40,1.189.143.40,1.189.0.0,Harbin,Heilongjiang,CN,45.75,126.65,,Asia/Shanghai
1.50.73.10,1.50.73.11,1.50.0.0,Guangzhou,Guangdong,CN,23.11667,113.25,,Asia/Shanghai
101.65.221.172,101.65.221.173,101.65.0.0,Wenzhou,Zhejiang,CN,27.99942,120.66682,,Asia/Shanghai
102.185.201.224,102.185.201.255,102.185.0.0,Alexandria,Alexandria,EG,31.20176,29.91582,,Africa/Cairo
101.205.14.224,101.205.14.227,101.205.0.0,Qingdao,Shandong,CN,36.06488,120.38042,,Asia/Shanghai
104.191.172.12,104.191.172.15,104.191.0.0,Pembroke,Kentucky,US,36.77588,-87.35556,42266,America/Chicago
104.249.228.93,104.249.228.95,104.249.0.0,Ottawa,Ontario,CA,45.41117,-75.69812,K1R,America/Toronto
1.78.191.0,1.78.191.159,1.78.0.0,Nagoya,Aichi,JP,35.18147,136.90641,460-0002,Asia/Tokyo
101.21.65.216,101.21.65.223,101.21.0.0,Xiamen,Fujian,CN,24.47979,118.08187,,Asia/Shanghai
101.51.178.166,101.51.178.167,101.51.0.0,Trakan Phut Phon,Ubon Ratchathani,TH,15.61183,105.02147,37110,Asia/Bangkok
102.148.99.64,102.148.99.95,102.148.0.0,Kabwe,Central,ZM,-14.4469,28.44644,,Africa/Lusaka
100.41.224.26,100.41.224.27,100.41.0.0,Boston,Massachusetts,US,42.35843,-71.05977,02108,America/New_York
1.206.15.64,1.206.15.64,1.206.0.0,Chengdu,Sichuan,CN,30.66667,104.06667,,Asia/Shanghai
101.29.122.86,101.29.122.119,101.29.0.0,Beijing,Beijing,CN,39.9075,116.39723,,Asia/Shanghai
104.177.42.30,104.177.42.30,104.177.0.0,Little Rock,Arkansas,US,34.7269,-92.344,72204,America/Chicago
101.207.28.114,101.207.28.114,101.207.0.0,Chengdu,Sichuan,CN,30.66667,104.06667,,Asia/Shanghai
1.84.28.237,1.84.28.237,1.84.0.0,Chengdu,Sichuan,CN,30.66667,104.06667,,Asia/Shanghai
102.186.185.80,102.186.185.127,102.186.0.0,Cairo,Cairo,EG,30.06263,31.24967,,Africa/Cairo
103.108.32.0,103.108.33.255,103.108.0.0,Bengkulu,Bengkulu,ID,-3.80044,102.26554,,Asia/Jakarta
104.28.44.0,104.28.44.11,104.28.0.0,Osaka,Ōsaka,JP,34.69374,135.50218,543-0062,Asia/Tokyo
101.67.66.192,101.67.66.195,101.67.0.0,Tianjin,Tianjin,CN,39.14222,117.17667,,Asia/Shanghai
102.106.122.32,102.106.122.95,102.106.0.0,As Sanad,Gafsa,TN,34.4628,9.26404,,Africa/Tunis
102.150.149.96,102.150.149.171,102.150.0.0,Lusaka,Lusaka,ZM,-15.40669,28.28713,,Africa/Lusaka
103.131.189.200,103.131.189.213,103.131.0.0,Taipei,Taiwan,TW,25.04776,121.53185,,Asia/Taipei
101.20.201.240,101.20.201.243,101.20.0.0,Tianjin,Tianjin,CN,39.14222,117.17667,,Asia/Shanghai
103.5.71.0,103.5.71.255,103.5.0.0,Hastings,Hawke's Bay,NZ,-39.6482,176.8402,4122,Pacific/Auckland
1.75.207.56,1.75.207.59,1.75.0.0,Seto,Aichi,JP,35.1953,137.2388,470-0424,Asia/Tokyo
103.130.143.122,103.130.143.124,103.130.0.0,Phnom Penh,Phnom Penh,KH,11.56245,104.91601,,Asia/Phnom_Penh
104.193.229.96,104.193.231.255,104.193.0.0,Salt Lake City,Utah,US,40.76078,-111.89105,84101,America/Denver
1.189.220.144,1.189.220.147,1.189.0.0,Alotau,Milne Bay,PG,-10.31509,150.45742,,Pacific/Port_Moresby
101.20.145.12,101.20.145.15,101.20.0.0,Tianjin,Tianjin,CN,39.14222,117.17667,,Asia/Shanghai
101.176.137.16,101.176.137.27,101.176.0.0,Sydney,New South Wales,AU,-33.9332,151.14647,2205,Australia/Sydney
102.167.214.72,102.167.214.79,102.167.0.0,Kisumu,Kisumu,KE,-0.10221,34.76171,,Africa/Nairobi
1.82.149.39,1.82.149.60,1.82.0.0,Hangzhou,Zhejiang,CN,30.29365,120.16142,,Asia/Shanghai
1.62.200.219,1.62.200.219,1.62.0.0,Xiamen,Fujian,CN,24.47979,118.08187,,Asia/Shanghai
102.106.164.160,102.106.164.167,102.106.0.0,Metlaoui,Gafsa,TN,34.32081,8.40157,,Africa/Tunis
1.4.233.80,1.4.233.93,1.4.0.0,Udon Thani,Udon Thani,TH,17.41567,102.78589,41000,Asia/Bangkok
102.16.16.80,102.16.16.87,102.16.0.0,Fianarantsoa,Upper Matsiatra,MG,-21.45267,47.08569,,Indian/Antananarivo
101.167.80.105,101.167.80.105,101.167.0.0,White Rock,Queensland,AU,-16.97438,145.7633,4868,Australia/Brisbane
1.189.211.187,1.189.211.188,1.189.0.0,Tianjin,Tianjin,CN,39.14222,117.17667,,Asia/Shanghai
1.206.82.68,1.206.82.71,1.206.0.0,Chengdu,Sichuan,CN,30.66667,104.06667,,Asia/Shanghai
101.28.52.96,101.28.52.99,101.28.0.0,Tianjin,Tianjin,CN,39.14222,117.17667,,Asia/Shanghai
102.189.168.0,102.189.168.3,102.189.0.0,Mersa Matruh,Matruh,EG,31.3529,27.23725,,Africa/Cairo
101.167.63.24,101.167.63.27,101.167.0.0,Nindaroo,Queensland,AU,-21.02075,149.15255,4750,Australia/Brisbane
101.248.138.157,101.248.138.157,101.248.0.0,Nanjing,Jiangsu,CN,32.06167,118.77778,,Asia/Shanghai
103.153.2.121,103.153.2.123,103.153.0.0,Jakarta,Jakarta,ID,-6.21462,106.84513,,Asia/Jakarta
101.167.14.251,101.167.14.251,101.167.0.0,Airlie Beach,Queensland,AU,-20.26751,148.71471,4802,Australia/Brisbane
1.2.247.37,1.2.247.37,1.2.0.0,Si Thep,Phetchabun,TH,15.45214,101.06667,67170,Asia/Bangkok
101.108.212.229,101.108.212.234,101.108.0.0,Nakhon Ratchasima,Nakhon Ratchasima,TH,14.97066,102.10196,30280,Asia/Bangkok
1.25.76.16,1.25.76.21,1.25.0.0,Tianjin,Tianjin,CN,39.14222,117.17667,,Asia/Shanghai
103.26.17.224,103.26.17.231,103.26.0.0,Greerton,Bay of Plenty,NZ,-37.7667,176.25,3175,Pacific/Auckland
101.139.201.112,101.139.201.115,101.139.0.0,Taichung,Taiwan,TW,24.1469,120.6839,,Asia/Taipei
102.158.90.56,102.158.90.56,102.158.0.0,Msaken,Sūsah,TN,35.72917,10.58082,,Africa/Tunis
1.183.159.64,1.183.159.135,1.183.0.0,Guangzhou,Guangdong,CN,23.11667,113.25,,Asia/Shanghai
1.54.53.93,1.54.53.93,1.54.0.0,Ho Chi Minh City,Ho Chi Minh,VN,10.82302,106.62965,71606,Asia/Ho_Chi_Minh
100.1.166.0,100.1.166.255,100.1.0.0,Hackensack,New Jersey,US,40.88593,-74.04347,07601,America/New_York
103.82.24.44,103.82.24.47,103.82.0.0,Hanoi,Hanoi,VN,21.0245,105.84117,10000,Asia/Bangkok
103.244.36.128,103.244.36.191,103.244.0.0,Jakarta,Jakarta,ID,-6.21462,106.84513,,Asia/Jakarta
103.47.95.116,103.47.95.127,103.47.0.0,Agra,Uttar Pradesh,IN,27.10088,78.01701,282009,Asia/Kolkata
102.179.23.32,102.179.23.39,102.179.0.0,Tenkodogo,Centre-Est,BF,11.78,-0.36972,,Africa/Ouagadougou
101.141.124.0,101.141.129.255,101.141.0.0,Osaka,Ōsaka,JP,34.69374,135.50218,543-0062,Asia/Tokyo
104.1.31.44,104.1.31.47,104.1.0.0,Shorewood,Illinois,US,41.52003,-88.20173,60404,America/Chicago
102.141.67.22,102.141.67.22,102.141.0.0,Musina,Limpopo,ZA,-22.34881,30.04074,0900,Africa/Johannesburg
101.204.29.240,101.204.29.240,101.204.0.0,Tianjin,Tianjin,CN,39.14222,117.17667,,Asia/Shanghai
1.4.158.106,1.4.158.127,1.4.0.0,Chiang Rai,Chiang Rai,TH,19.90858,99.8325,57000,Asia/Bangkok
101.184.16.82,101.184.16.95,101.184.0.0,Sydney,New South Wales,AU,-33.8678,151.2073,1032,Australia/Sydney
1.200.186.144,1.200.186.151,1.200.0.0,Tainan,Taiwan,TW,22.99083,120.21333,,Asia/Taipei
1.206.94.231,1.206.94.231,1.206.0.0,Nanjing,Jiangsu,CN,32.06167,118.77778,,Asia/Shanghai
103.6.150.0,103.6.150.255,103.6.0.0,Singapore,,SG,1.3522,103.7405,650448,Asia/Singapore
1.206.23.28,1.206.23.28,1.206.0.0,Chengdu,Sichuan,CN,30.66667,104.06667,,Asia/Shanghai
103.80.192.0,103.80.195.255,103.80.0.0,Yiwu,Zhejiang,CN,29.31506,120.07676,,Asia/Shanghai
101.66.181.100,101.66.181.104,101.66.0.0,Tianjin,Tianjin,CN,39.14222,117.17667,,Asia/Shanghai
101.177.178.136,101.177.178.174,101.177.0.0,Brisbane,Queensland,AU,-27.4679,153.0281,9005,Australia/Brisbane
104.4.252.149,104.4.252.149,104.4.0.0,Thompson's Station,Tennessee,US,35.80201,-86.91139,37179,America/Chicago
101.180.92.108,101.180.92.125,101.180.0.0,Sydney,New South Wales,AU,-33.83833,151.08647,2138,Australia/Sydney
102.156.66.16,102.156.66.31,102.156.0.0,Gafour,Silyānah,TN,36.32045,9.32424,,Africa/Tunis
101.166.164.0,101.166.164.255,101.166.0.0,Adelaide,South Australia,AU,-34.91339,138.6825,5072,Australia/Adelaide
1.189.124.54,1.189.124.54,1.189.0.0,Tianjin,Tianjin,CN,39.14222,117.17667,,Asia/Shanghai
1.62.151.151,1.62.151.151,1.62.0.0,Tianjin,Tianjin,CN,39.14222,117.17667,,Asia/Shanghai
104.8.193.106,104.8.193.127,104.8.0.0,Vicksburg,Mississippi,US,32.35265,-90.87788,39181,America/Chicago
104.112.150.0,104.112.155.255,104.112.0.0,Atlanta,Georgia,US,33.749,-84.38798,30302,America/New_York
101.20.97.33,101.20.97.35,101.20.0.0,Shenyang,Liaoning,CN,41.79222,123.43278,,Asia/Shanghai
1.210.102.96,1.210.102.255,1.210.0.0,Seoul,Seoul,KR,37.566,126.9784,03141,Asia/Seoul
1.207.16.208,1.207.16.211,1.207.0.0,Guangzhou,Guangdong,CN,23.11667,113.25,,Asia/Shanghai
1.49.203.8,1.49.203.9,1.49.0.0,Xiamen,Fujian,CN,24.47979,118.08187,,Asia/Shanghai
102.189.185.44,102.189.185.87,102.189.0.0,Alexandria,Alexandria,EG,31.20176,29.91582,,Africa/Cairo
1.25.11.145,1.25.11.147,1.25.0.0,Tianjin,Tianjin,CN,39.14222,117.17667,,Asia/Shanghai
102.187.47.36,102.187.47.39,102.187.0.0,Bilbays,Sharqia,EG,30.42039,31.56223,,Africa/Cairo
105.110.167.216,105.110.167.219,105.110.0.0,District of Taher,Jijel,DZ,36.6612,5.7888,18006,Africa/Algiers
103.41.219.0,103.41.219.127,103.41.0.0,Nokaning,Western Australia,AU,-31.37333,118.2183,6415,Australia/Perth
1.187.13.164,1.187.13.164,1.187.0.0,Mumbai,Maharashtra,IN,19.07283,72.88261,400070,Asia/Kolkata
1.20.26.132,1.20.26.133,1.20.0.0,Yaha,Yala,TH,6.4797,101.132,95120,Asia/Bangkok
101.179.72.186,101.179.72.186,101.179.0.0,Moore Park Beach,Queensland,AU,-24.71066,152.20905,4670,Australia/Brisbane
102.217.234.168,102.217.234.171,102.217.0.0,KwaDukuza,KwaZulu-Natal,ZA,-29.24165,31.18335,4470,Africa/Johannesburg
1.188.180.20,1.188.180.23,1.188.0.0,Xiamen,Fujian,CN,24.47979,118.08187,,Asia/Shanghai
1.49.212.225,1.49.212.225,1.49.0.0,Chengdu,Sichuan,CN,30.66667,104.06667,,Asia/Shanghai
101.21.130.88,101.21.130.95,101.21.0.0,Xiamen,Fujian,CN,24.47979,118.08187,,Asia/Shanghai
101.113.175.56,101.113.175.63,101.113.0.0,Narangba,Queensland,AU,-27.1912,153.0232,4508,Australia/Brisbane
102.7.111.96,102.7.111.103,102.7.0.0,Mariakani,Kilifi,KE,-3.86261,39.47458,,Africa/Nairobi
101.20.19.152,101.20.19.156,101.20.0.0,Shenyang,Liaoning,CN,41.79222,123.43278,,Asia/Shanghai
101.50.145.160,101.50.145.191,101.50.0.0,Sapporo,Hokkaido,JP,43.06667,141.35,065-0010,Asia/Tokyo
102.141.95.33,102.141.95.35,102.141.0.0,Thohoyandou,Limpopo,ZA,-22.94564,30.48497,0929,Africa/Johannesburg
104.48.243.0,104.48.243.255,104.48.0.0,Los Angeles,California,US,34.104,-118.2925,90027,America/Los_Angeles
1.197.191.54,1.197.191.55,1.197.0.0,Hangzhou,Zhejiang,CN,30.29365,120.16142,,Asia/Shanghai
103.140.250.216,103.140.250.219,103.140.0.0,Ho Chi Minh City,Ho Chi Minh,VN,10.82302,106.62965,71606,Asia/Ho_Chi_Minh
105.1.241.8,105.1.241.15,105.1.0.0,Port Shepstone,KwaZulu-Natal,ZA,-30.775,30.43335,4240,Africa/Johannesburg
101.16.139.145,101.16.139.145,101.16.0.0,Chengdu,Sichuan,CN,30.66667,104.06667,,Asia/Shanghai
101.16.187.72,101.16.187.75,101.16.0.0,Chengdu,Sichuan,CN,30.66667,104.06667,,Asia/Shanghai
1.43.224.158,1.43.224.159,1.43.0.0,Windang,New South Wales,AU,-34.53333,150.86667,2528,Australia/Sydney
103.142.176.0,103.142.177.255,103.142.0.0,Taipei,Taiwan,TW,25.04776,121.53185,,Asia/Taipei
102.159.6.186,102.159.6.206,102.159.0.0,Tunis,Tūnis,TN,36.81897,10.16579,,Africa/Tunis
1.33.85.43,1.33.85.43,1.33.0.0,Sendai,Miyagi,JP,38.26667,140.86667,980-0014,Asia/Tokyo
101.174.76.202,101.174.76.223,101.174.0.0,Sydney,New South Wales,AU,-33.8678,151.2073,1032,Australia/Sydney
102.2.109.208,102.2.109.215,102.2.0.0,Naivasha,Nakuru,KE,-0.71383,36.43261,,Africa/Nairobi
103.24.87.11,103.24.87.11,103.24.0.0,Bettiah,Bihar,IN,27.01655,84.51245,845451,Asia/Kolkata
105.112.167.8,105.112.167.15,105.112.0.0,Buguma,Rivers,NG,4.73614,6.86236,,Africa/Lagos
101.27.216.198,101.27.216.199,101.27.0.0,Qingdao,Shandong,CN,36.06488,120.38042,,Asia/Shanghai
101.35.160.144,101.35.160.159,101.35.0.0,Shanghai,Shanghai,CN,31.22222,121.45806,,Asia/Shanghai
102.20.36.0,102.20.36.255,102.20.0.0,Antananarivo,Analamanga,MG,-18.91368,47.53613,,Indian/Antananarivo
1.182.19.118,1.182.19.123,1.182.0.0,Hangzhou,Zhejiang,CN,30.29365,120.16142,,Asia/Shanghai
102.150.65.144,102.150.65.159,102.150.0.0,Kafue,Lusaka,ZM,-15.76911,28.18136,,Africa/Lusaka
101.249.221.156,101.249.221.157,101.249.0.0,Rikaze,Tibet,CN,29.25,88.88333,,Asia/Shanghai
101.138.26.135,101.138.26.137,101.138.0.0,Banqiao,Taipei,TW,25.01427,121.46719,,Asia/Taipei
1.62.196.129,1.62.196.130,1.62.0.0,Qingdao,Shandong,CN,36.06488,120.38042,,Asia/Shanghai
1.181.231.120,1.181.231.120,1.181.0.0,Suzhou,Jiangsu,CN,31.30408,120.59538,,Asia/Shanghai
1.49.43.231,1.49.43.232,1.49.0.0,Nanjing,Jiangsu,CN,32.06167,118.77778,,Asia/Shanghai
101.66.178.149,101.66.178.150,101.66.0.0,Tianjin,Tianjin,CN,39.14222,117.17667,,Asia/Shanghai
101.19.116.172,101.19.116.181,101.19.0.0,Beijing,Beijing,CN,39.9075,116.39723,,Asia/Shanghai
1.156.54.152,1.156.54.155,1.156.0.0,Sydney,New South Wales,AU,-33.88835,151.1964,2008,Australia/Sydney
1.123.20.176,1.123.21.15,1.123.0.0,Gold Coast,Queensland,AU,-28.00029,153.43088,4217,Australia/Brisbane
101.30.9.115,101.30.9.115,101.30.0.0,Qingdao,Shandong,CN,36.06488,120.38042,,Asia/Shanghai
101.75.221.138,101.75.221.138,101.75.0.0,Tangshan,Hebei,CN,39.63333,118.18333,,Asia/Shanghai
1.158.79.224,1.158.79.225,1.158.0.0,Sydney,New South Wales,AU,-33.8678,151.2073,1032,Australia/Sydney
102.6.156.224,102.6.156.239,102.6.0.0,Mombasa,Mombasa,KE,-4.05466,39.66359,,Africa/Nairobi
105.154.221.78,105.154.221.79,105.154.0.0,Safi,Marrakesh-Safi,MA,32.29939,-9.23718,,Africa/Casablanca
105.129.230.164,105.129.230.164,105.129.0.0,Oujda-Angad,Oriental,MA,34.68139,-1.90858,,Africa/Casablanca
1.205.158.32,1.205.158.47,1.205.0.0,Chengdu,Sichuan,CN,30.66667,104.06667,,Asia/Shanghai
1.62.40.130,1.62.40.132,1.62.0.0,Harbin,Heilongjiang,CN,45.75,126.65,,Asia/Shanghai
102.189.4.40,102.189.4.45,102.189.0.0,Ţanţā,Gharbia,EG,30.78847,31.00192,,Africa/Cairo
101.166.50.176,101.166.50.183,101.166.0.0,Bathurst,New South Wales,AU,-33.41665,149.5806,2795,Australia/Sydney
1.20.54.130,1.20.54.131,1.20.0.0,Phitsanulok,Phitsanulok,TH,16.82481,100.25858,65000,Asia/Bangkok
1.157.130.208,1.157.130.215,1.157.0.0,Sydney,New South Wales,AU,-33.86785,151.20732,1001,Australia/Sydney
1.25.85.156,1.25.85.185,1.25.0.0,Beijing,Beijing,CN,39.9075,116.39723,,Asia/Shanghai
102.168.180.128,102.168.180.159,102.168.0.0,Kélibia,Nābul,TN,36.84757,11.09386,,Africa/Tunis
1.244.88.0,1.244.88.255,1.244.0.0,Wŏnju,Gangwon-do,KR,37.3413,127.9462,26439,Asia/Seoul
1.183.24.188,1.183.24.189,1.183.0.0,Chengdu,Sichuan,CN,30.66667,104.06667,,Asia/Shanghai
1.196.122.16,1.196.122.16,1.196.0.0,Chengdu,Sichuan,CN,30.66667,104.06667,,Asia/Shanghai
1.31.81.94,1.31.81.95,1.31.0.0,Tianjin,Tianjin,CN,39.14222,117.17667,,Asia/Shanghai
104.151.82.0,104.151.82.255,104.151.0.0,Amsterdam,North Holland,NL,52.37403,4.88969,1012,Europe/Amsterdam
102.170.203.77,102.170.203.79,102.170.0.0,Sfax,Şafāqis,TN,34.74056,10.76028,,Africa/Tunis
101.16.240.180,101.16.240.187,101.16.0.0,Chengdu,Sichuan,CN,30.66667,104.06667,,Asia/Shanghai
100.16.41.95,100.16.41.175,100.16.0.0,Bel Air,Maryland,US,39.5755,-76.4008,21050,America/New_York
1.158.200.160,1.158.200.163,1.158.0.0,Harrismith,Western Australia,AU,-32.93571,117.8609,6361,Australia/Perth
102.170.91.16,102.170.91.16,102.170.0.0,Sousse,Sūsah,TN,35.82539,10.63699,,Africa/Tunis
102.80.39.224,102.80.39.239,102.80.0.0,Isingiro,Western Region,UG,-0.86864,30.83019,,Africa/Kampala
102.178.123.96,102.178.123.111,102.178.0.0,Koupéla,Centre-Est,BF,12.17864,-0.35103,,Africa/Ouagadougou
1.204.249.145,1.204.249.145,1.204.0.0,Guangzhou,Guangdong,CN,23.11667,113.25,,Asia/Shanghai
1.38.66.60,1.38.66.62,1.38.0.0,Jamnagar,Gujarat,IN,22.47292,70.06673,360510,Asia/Kolkata
102.167.133.166,102.167.133.167,102.167.0.0,Eldoret,Uasin Gishu,KE,0.52036,35.26993,,Africa/Nairobi
103.143.208.80,103.143.208.93,103.143.0.0,Hanoi,Hanoi,VN,21.0245,105.84117,10000,Asia/Bangkok
101.20.30.248,101.20.30.253,101.20.0.0,Langfang,Hebei,CN,39.50972,116.69472,,Asia/Shanghai
1.42.127.128,1.42.127.135,1.42.0.0,West Kempsey,New South Wales,AU,-31.05757,152.82794,2440,Australia/Sydney
1.48.5.28,1.48.5.29,1.48.0.0,Nanjing,Jiangsu,CN,32.06167,118.77778,,Asia/Shanghai
101.112.240.50,101.112.240.255,101.112.0.0,Sydney,New South Wales,AU,-33.7375,150.8468,2761,Australia/Sydney
104.138.105.0,104.138.106.255,104.138.0.0,Atlanta,Georgia,US,33.749,-84.38798,30302,America/New_York
1.1.152.0,1.1.152.31,1.1.0.0,Na Bon,Nakhon Si Thammarat,TH,8.26167,99.59472,80220,Asia/Bangkok
101.64.63.0,101.64.63.7,101.64.0.0,Beijing,Beijing,CN,39.9075,116.39723,,Asia/Shanghai
1.29.253.204,1.29.253.215,1.29.0.0,Beijing,Beijing,CN,39.9075,116.39723,,Asia/Shanghai
1.15.140.176,1.15.140.207,1.15.0.0,Shenzhen,Guangdong,CN,22.54554,114.0683,,Asia/Shanghai
1.204.140.147,1.204.140.151,1.204.0.0,Chengdu,Sichuan,CN,30.66667,104.06667,,Asia/Shanghai
104.220.79.33,104.220.79.35,104.220.0.0,Portland,Oregon,US,45.52345,-122.67621,97204,America/Los_Angeles
1.32.77.242,1.32.77.243,1.32.0.0,Kulai,Johor,MY,1.6561,103.6032,81000,Asia/Kuala_Lumpur
101.20.248.72,101.20.248.73,101.20.0.0,Xiamen,Fujian,CN,24.47979,118.08187,,Asia/Shanghai
1.50.97.105,1.50.97.105,1.50.0.0,Hangzhou,Zhejiang,CN,30.29365,120.16142,,Asia/Shanghai
1.200.141.220,1.200.141.223,1.200.0.0,Taichung,Taiwan,TW,24.1469,120.6839,,Asia/Taipei
1.190.31.216,1.190.31.216,1.190.0.0,Harbin,Heilongjiang,CN,45.75,126.65,,Asia/Shanghai
102.10.136.192,102.10.141.167,102.10.0.0,Alexandria,Alexandria,EG,31.20176,29.91582,,Africa/Cairo
101.16.22.242,101.16.22.243,101.16.0.0,Xiamen,Fujian,CN,24.47979,118.08187,,Asia/Shanghai
1.123.28.192,1.123.28.207,1.123.0.0,Twin Waters,Queensland,AU,-26.6217,152.93123,4560,Australia/Brisbane
101.109.33.87,101.109.33.91,101.109.0.0,Chanthaburi,Chanthaburi,TH,12.60961,102.10447,22000,Asia/Bangkok
1.62.224.96,1.62.224.101,1.62.0.0,Beijing,Beijing,CN,39.9075,116.39723,,Asia/Shanghai
1.50.66.187,1.50.66.187,1.50.0.0,Hangzhou,Zhejiang,CN,30.29365,120.16142,,Asia/Shanghai
1.228.177.0,1.228.177.255,1.228.0.0,Hongseong,Chungcheongnam-do,KR,36.6464,126.6859,32268,Asia/Seoul
104.60.37.0,104.60.37.255,104.60.0.0,Fresno,California,US,36.7528,-119.7061,93727,America/Los_Angeles
1.58.119.96,1.58.119.99,1.58.0.0,Jinrongjie,Beijing,CN,39.91222,116.35615,,Asia/Shanghai
102.60.32.144,102.60.32.159,102.60.0.0,Idfū,Aswan,EG,24.97916,32.87722,,Africa/Cairo
102.71.204.0,102.71.204.255,102.71.0.0,Blantyre,Southern Region,MW,-15.6473,34.9396,311103,Africa/Blantyre
101.177.72.84,101.177.72.91,101.177.0.0,Perth,Western Australia,AU,-32.13531,115.851,6164,Australia/Perth
103.107.62.0,103.107.62.127,103.107.0.0,Ankleshwar,Gujarat,IN,21.6045,73.044,393002,Asia/Kolkata
1.61.94.78,1.61.94.147,1.61.0.0,Beijing,Beijing,CN,39.9075,116.39723,,Asia/Shanghai
102.157.216.208,102.157.216.223,102.157.0.0,Tunis,Tūnis,TN,36.81897,10.16579,,Africa/Tunis
1.84.220.27,1.84.220.30,1.84.0.0,Chengdu,Sichuan,CN,30.66667,104.06667,,Asia/Shanghai
1.43.7.4,1.43.7.7,1.43.0.0,Sydney,New South Wales,AU,-34.0041,151.0806,2225,Australia/Sydney
1.63.49.112,1.63.49.127,1.63.0.0,Xiamen,Fujian,CN,24.47979,118.08187,,Asia/Shanghai
101.167.7.165,101.167.7.165,101.167.0.0,Mackay,Queensland,AU,-21.15345,149.16554,9943,Australia/Brisbane
101.66.213.152,101.66.213.153,101.66.0.0,Jinhua,Zhejiang,CN,29.10678,119.64421,,Asia/Shanghai
103.27.220.0,103.27.220.3,103.27.0.0,Pittsburgh,Pennsylvania,US,40.4477,-79.9933,15222,America/New_York
101.174.244.96,101.174.244.111,101.174.0.0,Gunnedah,New South Wales,AU,-30.98065,150.25838,2380,Australia/Sydney
104.160.193.64,104.160.193.77,104.160.0.0,Kingston,Ontario,CA,44.22976,-76.48098,K7K,America/Toronto
101.183.1.22,101.183.1.23,101.183.0.0,Wollongong,New South Wales,AU,-34.424,150.89345,2500,Australia/Sydney
100.37.129.0,100.37.129.255,100.37.0.0,Emerson Hill,New York,US,40.60872,-74.09598,10304,America/New_York
103.205.28.34,103.205.28.37,103.205.0.0,Launceston,Tasmania,AU,-41.4388,147.1347,7902,Australia/Hobart
102.167.126.211,102.167.127.15,102.167.0.0,Nairobi,Nairobi Area,KE,-1.28333,36.81667,,Africa/Nairobi
1.1.230.255,1.1.230.255,1.1.0.0,Sangkha,Surin,TH,14.6362,103.85278,34000,Asia/Bangkok
1.206.97.92,1.206.97.93,1.206.0.0,Hangzhou,Zhejiang,CN,30.29365,120.16142,,Asia/Shanghai
101.98.209.24,101.98.209.27,101.98.0.0,Auckland,Auckland,NZ,-36.84853,174.76349,1010,Pacific/Auckland
102.61.224.240,102.61.224.255,102.61.0.0,Aswan,Aswan,EG,24.09082,32.89942,,Africa/Cairo
1.206.247.60,1.206.247.60,1.206.0.0,Chengdu,Sichuan,CN,30.66667,104.06667,,Asia/Shanghai
100.7.81.72,100.7.82.39,100.7.0.0,Woodlake,Virginia,US,37.426,-77.7585,23120,America/New_York
102.101.228.224,102.101.228.228,102.101.0.0,Casablanca,Casablanca-Settat,MA,33.58831,-7.61138,,Africa/Casablanca
101.174.138.116,101.174.138.121,101.174.0.0,Sydney,New South Wales,AU,-33.755,151.0697,2119,Australia/Sydney
104.4.119.128,104.4.119.135,104.4.0.0,Powder Springs,Georgia,US,33.85955,-84.68382,30127,America/New_York
103.228.58.0,103.228.58.255,103.228.0.0,Kuala Lumpur,Kuala Lumpur,MY,2.8064,101.7239,63200,Asia/Kuala_Lumpur
104.15.137.180,104.15.137.191,104.15.0.0,Malden,Missouri,US,36.557,-89.96648,63863,America/Chicago
105.111.77.100,105.111.77.103,105.111.0.0,Bordj Bou Arréridj,Bordj Bou Arréridj,DZ,35.9792,4.7474,34017,Africa/Algiers
1.182.9.103,1.182.9.103,1.182.0.0,Chengdu,Sichuan,CN,30.66667,104.06667,,Asia/Shanghai
101.176.102.40,101.176.102.103,101.176.0.0,Melbourne,Victoria,AU,-37.92165,145.06645,3165,Australia/Melbourne
101.143.221.196,101.143.221.214,101.143.0.0,Kusatsu,Shiga,JP,35.0536,135.961,525-0003,Asia/Tokyo
103.224.182.7,103.224.182.8,103.224.0.0,San Diego,California,US,32.71571,-117.16472,92101,America/Los_Angeles
1.24.183.131,1.24.183.145,1.24.0.0,Tianjin,Tianjin,CN,39.14222,117.17667,,Asia/Shanghai
1.206.122.248,1.206.122.251,1.206.0.0,Hangzhou,Zhejiang,CN,30.29365,120.16142,,Asia/Shanghai
1.204.77.90,1.204.77.91,1.204.0.0,Guiyang,Guizhou,CN,26.58333,106.71667,,Asia/Shanghai
1.157.25.58,1.157.25.71,1.157.0.0,Canberra,Australian Capital Territory,AU,-35.20998,149.03596,2615,Australia/Sydney
101.27.206.230,101.27.206.231,101.27.0.0,Qingdao,Shandong,CN,36.06488,120.38042,,Asia/Shanghai
1.189.64.150,1.189.64.151,1.189.0.0,Tianjin,Tianjin,CN,39.14222,117.17667,,Asia/Shanghai
1.82.110.190,1.82.110.194,1.82.0.0,Hangzhou,Zhejiang,CN,30.29365,120.16142,,Asia/Shanghai
101.30.220.116,101.30.220.127,101.30.0.0,Hebei,Beijing,CN,39.81521,115.93068,,Asia/Shanghai
101.249.6.98,101.249.6.99,101.249.0.0,Chengdu,Sichuan,CN,30.66667,104.06667,,Asia/Shanghai
101.204.207.178,101.204.207.183,101.204.0.0,Tianjin,Tianjin,CN,39.14222,117.17667,,Asia/Shanghai
102.190.236.36,102.190.236.71,102.190.0.0,Cairo,Cairo,EG,30.06263,31.24967,,Africa/Cairo
104.169.89.0,104.169.89.3,104.169.0.0,Circleville,Ohio,US,39.60062,-82.94601,43113,America/New_York
1.189.162.248,1.189.162.251,1.189.0.0,Tianjin,Tianjin,CN,39.14222,117.17667,,Asia/Shanghai
102.52.160.16,102.52.160.19,102.52.0.0,Sidi Bennour,Casablanca-Settat,MA,32.65236,-8.42769,,Africa/Casablanca
102.149.231.240,102.149.231.240,102.149.0.0,Mongu,Western,ZM,-15.24835,23.12741,,Africa/Lusaka
1.84.100.130,1.84.100.131,1.84.0.0,Chengdu,Sichuan,CN,30.66667,104.06667,,Asia/Shanghai
1.4.253.32,1.4.253.39,1.4.0.0,Su-ngai Kolok,Narathiwat,TH,6.02977,101.96586,96120,Asia/Bangkok
101.51.180.16,101.51.180.31,101.51.0.0,Nakhon Ratchasima,Nakhon Ratchasima,TH,14.97066,102.10196,30280,Asia/Bangkok
104.44.224.184,104.44.224.185,104.44.0.0,Dallas,Texas,US,32.78306,-96.80667,75201,America/Chicago
105.149.89.0,105.149.89.63,105.149.0.0,Mohammedia,Casablanca-Settat,MA,33.68607,-7.38298,,Africa/Casablanca
1.50.69.14,1.50.69.16,1.50.0.0,Chengdu,Sichuan,CN,30.66667,104.06667,,Asia/Shanghai
104.158.53.198,104.158.53.199,104.158.0.0,Toronto,Ontario,CA,43.70011,-79.4163,M5A,America/Toronto
102.168.25.81,102.168.25.93,102.168.0.0,Sfax,Şafāqis,TN,34.74056,10.76028,,Africa/Tunis
103.88.211.235,103.88.211.236,103.88.0.0,Lhokseumawe,Aceh,ID,5.1801,97.1507,,Asia/Jakarta
101.69.71.144,101.69.71.147,101.69.0.0,Xiamen,Fujian,CN,24.47979,118.08187,,Asia/Shanghai
102.0.186.176,102.0.186.255,102.0.0.0,Nairobi,Nairobi Area,KE,-1.28333,36.81667,,Africa/Nairobi
102.219.160.69,102.219.160.72,102.219.0.0,Pinetown,KwaZulu-Natal,ZA,-29.82068,30.88674,3600,Africa/Johannesburg
1.20.241.30,1.20.241.31,1.20.0.0,Prachuap Khiri Khan,Prachuap Khiri Khan,TH,11.7972,99.7278,77180,Asia/Bangkok
105.110.96.81,105.110.96.81,105.110.0.0,Jijel,Jijel,DZ,36.821,5.76352,18000,Africa/Algiers
1.62.199.49,1.62.199.49,1.62.0.0,Xiamen,Fujian,CN,24.47979,118.08187,,Asia/Shanghai
1.49.217.243,1.49.217.243,1.49.0.0,Chengdu,Sichuan,CN,30.66667,104.06667,,Asia/Shanghai
101.17.155.36,101.17.155.43,101.17.0.0,Tianjin,Tianjin,CN,39.14222,117.17667,,Asia/Shanghai
104.235.111.227,104.235.111.233,104.235.0.0,DeKalb,Illinois,US,41.92947,-88.75036,60115,America/Chicago
100.41.199.228,100.41.199.231,100.41.0.0,Boston,Massachusetts,US,42.35843,-71.05977,02108,America/New_York
105.106.178.196,105.106.178.197,105.106.0.0,Jijel,Jijel,DZ,36.821,5.76352,18000,Africa/Algiers
1.200.154.216,1.200.154.221,1.200.0.0,Taichung,Taiwan,TW,24.1469,120.6839,,Asia/Taipei
101.109.11.188,101.109.11.231,101.109.0.0,Pattaya,Chon Buri,TH,12.93333,100.88333,76130,Asia/Bangkok
102.154.109.64,102.154.109.191,102.154.0.0,Tunis,Tūnis,TN,36.81897,10.16579,,Africa/Tunis
101.187.106.200,101.187.106.207,101.187.0.0,Elimbah,Queensland,AU,-27.07416,152.97515,4510,Australia/Brisbane
1.156.129.248,1.156.129.251,1.156.0.0,Scarness,Queensland,AU,-25.28405,152.856,4655,Australia/Brisbane
102.191.86.204,102.191.86.215,102.191.0.0,Cairo,Cairo,EG,30.06263,31.24967,,Africa/Cairo
1.122.147.196,1.122.147.211,1.122.0.0,Brisbane,Queensland,AU,-27.5394,152.97798,4075,Australia/Brisbane
101.249.88.168,101.249.88.168,101.249.0.0,Chengdu,Sichuan,CN,30.66667,104.06667,,Asia/Shanghai
102.189.212.24,102.189.212.25,102.189.0.0,Cairo,Cairo,EG,30.06263,31.24967,,Africa/Cairo
101.22.195.129,101.22.195.129,101.22.0.0,Qingdao,Shandong,CN,36.06488,120.38042,,Asia/Shanghai
1.50.76.136,1.50.76.136,1.50.0.0,Nanjing,Jiangsu,CN,32.06167,118.77778,,Asia/Shanghai
1.204.199.109,1.204.199.111,1.204.0.0,Guiyang,Guizhou,CN,26.58333,106.71667,,Asia/Shanghai
103.230.22.0,103.230.23.255,103.230.0.0,Deoli,Delhi,IN,28.5329,77.2004,110060,Asia/Kolkata
1.244.0.0,1.244.0.255,1.244.0.0,Sokcho,Gangwon-do,KR,38.1383,128.6104,25003,Asia/Seoul
101.70.121.120,101.70.121.121,101.70.0.0,Jiaxing,Zhejiang,CN,30.7522,120.75,,Asia/Shanghai
1.204.16.232,1.204.16.236,1.204.0.0,Guiyang,Guizhou,CN,26.58333,106.71667,,Asia/Shanghai
1.123.2.240,1.123.2.247,1.123.0.0,Brisbane,Queensland,AU,-27.24842,152.98197,4503,Australia/Brisbane
103.238.124.128,103.238.126.255,103.238.0.0,Singapore,,SG,1.28967,103.85007,018989,Asia/Singapore
1.81.169.57,1.81.169.58,1.81.0.0,Xiamen,Fujian,CN,24.47979,118.08187,,Asia/Shanghai
102.216.0.0,102.216.139.255,102.216.0.0,Port Louis,Port Louis,MU,-20.16194,57.49889,,Indian/Mauritius
1.63.238.240,1.63.238.247,1.63.0.0,Jinrongjie,Beijing,CN,39.91222,116.35615,,Asia/Shanghai
104.168.91.182,104.168.91.183,104.168.0.0,Denver,Colorado,US,39.73915,-104.9847,80203,America/Denver
1.157.180.230,1.157.180.255,1.157.0.0,Sydney,New South Wales,AU,-33.74593,150.81132,2770,Australia/Sydney
101.173.172.240,101.173.172.241,101.173.0.0,Frankston East,Victoria,AU,-38.0064,145.2705,3803,Australia/Melbourne
1.84.73.79,1.84.73.81,1.84.0.0,Chengdu,Sichuan,CN,30.66667,104.06667,,Asia/Shanghai
103.85.230.108,103.85.230.191,103.85.0.0,Borsad,Gujarat,IN,22.40788,72.89817,388540,Asia/Kolkata
101.167.49.220,101.167.49.239,101.167.0.0,Cairns,Queensland,AU,-16.92366,145.76613,4870,Australia/Brisbane
104.28.120.220,104.28.120.221,104.28.0.0,Indore,Madhya Pradesh,IN,22.71792,75.8333,452002,Asia/Kolkata
102.7.24.128,102.7.24.159,102.7.0.0,Nakuru,Nakuru,KE,-0.30719,36.07225,,Africa/Nairobi
102.167.214.80,102.167.214.95,102.167.0.0,Eldoret,Uasin Gishu,KE,0.52036,35.26993,,Africa/Nairobi
101.43.165.152,101.43.165.159,101.43.0.0,Shanghai,Shanghai,CN,31.22222,121.45806,,Asia/Shanghai
1.181.129.10,1.181.129.11,1.181.0.0,Hangzhou,Zhejiang,CN,30.29365,120.16142,,Asia/Shanghai
1.52.227.17,1.52.227.17,1.52.0.0,Hanoi,Hanoi,VN,21.0245,105.84117,10000,Asia/Bangkok
101.249.73.255,101.249.73.255,101.249.0.0,Bayi,Tibet,CN,29.65812,94.35892,,Asia/Shanghai
103.20.52.128,103.20.52.255,103.20.0.0,Paltan,Dhaka,BD,23.73625,90.41426,1000,Asia/Dhaka
103.171.199.0,103.171.199.255,103.171.0.0,Kolkata,West Bengal,IN,22.8436,88.2293,700017,Asia/Kolkata
101.30.126.237,101.30.126.241,101.30.0.0,Beijing,Beijing,CN,39.9075,116.39723,,Asia/Shanghai
103.238.64.0,103.238.67.255,103.238.0.0,Brisbane,Queensland,AU,-27.46794,153.02809,4000,Australia/Brisbane
101.249.104.189,101.249.104.189,101.249.0.0,Bayi,Tibet,CN,29.65812,94.35892,,Asia/Shanghai
101.161.207.178,101.161.207.178,101.161.0.0,Frankston East,Victoria,AU,-37.9833,145.2,3164,Australia/Melbourne
102.25.117.128,102.25.117.143,102.25.0.0,Kebili,Qibilī,TN,33.70439,8.96903,,Africa/Tunis
1.181.235.208,1.181.235.223,1.181.0.0,Hangzhou,Zhejiang,CN,30.29365,120.16142,,Asia/Shanghai
102.189.188.218,102.189.188.239,102.189.0.0,Alexandria,Alexandria,EG,31.20176,29.91582,,Africa/Cairo
102.23.94.68,102.23.94.73,102.23.0.0,Port Elizabeth,Eastern Cape,ZA,-33.9667,25.5833,6033,Africa/Johannesburg
101.112.216.64,101.112.216.79,101.112.0.0,Kwinana,Western Australia,AU,-32.23039,115.83162,6167,Australia/Perth
101.167.20.40,101.167.20.53,101.167.0.0,Townsville,Queensland,AU,-19.26639,146.80569,4810,Australia/Brisbane
101.69.32.86,101.69.32.86,101.69.0.0,Xiamen,Fujian,CN,24.47979,118.08187,,Asia/Shanghai
101.98.110.49,101.98.110.51,101.98.0.0,Auckland,Auckland,NZ,-36.84853,174.76349,1010,Pacific/Auckland
102.185.211.108,102.185.211.112,102.185.0.0,Alexandria,Alexandria,EG,31.20176,29.91582,,Africa/Cairo
101.109.123.99,101.109.123.99,101.109.0.0,Kantang,Trang,TH,7.40542,99.51561,92110,Asia/Bangkok
105.105.194.40,105.105.194.47,105.105.0.0,Khenchela,Khenchela,DZ,35.3789,7.0454,40002,Africa/Algiers
100.34.100.0,100.34.100.19,100.34.0.0,Brookhaven,Pennsylvania,US,39.8643,-75.4332,19014,America/New_York
1.58.40.218,1.58.40.218,1.58.0.0,Qingdao,Shandong,CN,36.06488,120.38042,,Asia/Shanghai
101.21.80.130,101.21.80.172,101.21.0.0,Tianjin,Tianjin,CN,39.14222,117.17667,,Asia/Shanghai
100.4.80.64,100.4.80.64,100.4.0.0,Burkeville,Virginia,US,37.18765,-78.20139,23922,America/New_York
103.57.80.51,103.57.80.51,103.57.0.0,Mumbai,Maharashtra,IN,19.07283,72.88261,400070,Asia/Kolkata
1.62.72.62,1.62.72.62,1.62.0.0,Harbin,Heilongjiang,CN,45.75,126.65,,Asia/Shanghai
101.64.65.24,101.64.65.27,101.64.0.0,Beijing,Beijing,CN,39.9075,116.39723,,Asia/Shanghai
102.69.74.0,102.69.79.255,102.69.0.0,Tobruk,Al Buţnān,LY,32.08963,23.95385,,Africa/Tripoli
102.166.134.212,102.166.134.215,102.166.0.0,Nakuru,Nakuru,KE,-0.30719,36.07225,,Africa/Nairobi
1.182.218.240,1.182.218.242,1.182.0.0,Guangzhou,Guangdong,CN,23.11667,113.25,,Asia/Shanghai
101.204.39.184,101.204.39.235,101.204.0.0,Chengdu,Sichuan,CN,30.66667,104.06667,,Asia/Shanghai
1.206.88.2,1.206.88.3,1.206.0.0,Xiamen,Fujian,CN,24.47979,118.08187,,Asia/Shanghai
101.51.86.248,101.51.87.7,101.51.0.0,Ubon Ratchathani,Ubon Ratchathani,TH,15.23844,104.84866,33130,Asia/Bangkok
105.155.165.64,105.155.165.67,105.155.0.0,Fès,Fès-Meknès,MA,34.03313,-5.00028,,Africa/Casablanca
1.10.186.168,1.10.186.173,1.10.0.0,Si Sa Ket,Si Sa Ket,TH,15.11481,104.32938,33000,Asia/Bangkok
103.137.94.0,103.137.94.63,103.137.0.0,Mumbai,Maharashtra,IN,19.07283,72.88261,400070,Asia/Kolkata
104.240.47.168,104.240.47.173,104.240.0.0,Fort Defiance,Arizona,US,35.74446,-109.07648,86504,America/Denver
101.189.213.160,101.189.213.165,101.189.0.0,Brisbane,Queensland,AU,-27.46794,153.02809,4000,Australia/Brisbane
1.204.184.101,1.204.184.103,1.204.0.0,Guiyang,Guizhou,CN,26.58333,106.71667,,Asia/Shanghai
101.26.54.156,101.26.54.156,101.26.0.0,Qingdao,Shandong,CN,36.06488,120.38042,,Asia/Shanghai
103.226.196.0,103.226.199.255,103.226.0.0,Beijing,Beijing,CN,39.9075,116.39723,,Asia/Shanghai
105.129.214.137,105.129.214.137,105.129.0.0,Oujda-Angad,Oriental,MA,34.68139,-1.90858,,Africa/Casablanca
102.158.55.68,102.158.55.71,102.158.0.0,Kairouan,Kairouan,TN,35.6781,10.09633,,Africa/Tunis
101.249.229.140,101.249.229.140,101.249.0.0,Bayi,Tibet,CN,29.65812,94.35892,,Asia/Shanghai
100.41.7.62,100.41.7.63,100.41.0.0,Newark,New Jersey,US,40.73566,-74.17237,07102,America/New_York
103.241.164.0,103.241.164.255,103.241.0.0,Yung Shue Wan,Islands,HK,22.22623,114.11241,,Asia/Hong_Kong
103.52.254.110,103.52.254.110,103.52.0.0,Bānkura,West Bengal,IN,23.23241,87.0716,722152,Asia/Kolkata
101.139.225.220,101.139.225.220,101.139.0.0,Banqiao,Taipei,TW,25.01427,121.46719,,Asia/Taipei
101.174.169.220,101.174.169.223,101.174.0.0,Campbelltown,New South Wales,AU,-34.01993,150.83619,2566,Australia/Sydney
1.195.76.217,1.195.76.217,1.195.0.0,Suzhou,Jiangsu,CN,31.30408,120.59538,,Asia/Shanghai
1.182.57.168,1.182.57.169,1.182.0.0,Xiamen,Fujian,CN,24.47979,118.08187,,Asia/Shanghai
101.51.121.80,101.51.121.191,101.51.0.0,Taphan Hin,Phichit,TH,16.3,100.3167,66190,Asia/Bangkok
102.189.160.184,102.189.160.187,102.189.0.0,Alexandria,Alexandria,EG,31.20176,29.91582,,Africa/Cairo
101.31.84.84,101.31.84.87,101.31.0.0,Qingdao,Shandong,CN,36.06488,120.38042,,Asia/Shanghai
1.214.133.29,1.214.133.29,1.214.0.0,Cheonan,Chungcheongnam-do,KR,36.8065,127.1522,31126,Asia/Seoul
101.20.194.244,101.20.195.7,101.20.0.0,Shenyang,Liaoning,CN,41.79222,123.43278,,Asia/Shanghai
101.136.120.27,101.136.120.31,101.136.0.0,Taichung,Taiwan,TW,24.1469,120.6839,,Asia/Taipei
101.140.231.210,101.140.231.210,101.140.0.0,Kobe,Hyōgo,JP,34.6913,135.183,761-4146,Asia/Tokyo
101.22.186.92,101.22.186.93,101.22.0.0,Qingdao,Shandong,CN,36.06488,120.38042,,Asia/Shanghai
1.84.73.156,1.84.73.157,1.84.0.0,Beijing,Beijing,CN,39.9075,116.39723,,Asia/Shanghai
103.150.186.144,103.150.186.159,103.150.0.0,Māler Kotla,Punjab,IN,30.5309,75.87949,148023,Asia/Kolkata
101.67.233.116,101.67.233.116,101.67.0.0,Qingdao,Shandong,CN,36.06488,120.38042,,Asia/Shanghai
1.197.45.102,1.197.45.102,1.197.0.0,Xiamen,Fujian,CN,24.47979,118.08187,,Asia/Shanghai
101.128.231.196,101.128.231.197,101.128.0.0,Sendai,Miyagi,JP,38.26667,140.86667,980-0014,Asia/Tokyo
101.25.71.0,101.25.71.7,101.25.0.0,Xiamen,Fujian,CN,24.47979,118.08187,,Asia/Shanghai
1.84.27.112,1.84.27.112,1.84.0.0,Chengdu,Sichuan,CN,30.66667,104.06667,,Asia/Shanghai
102.25.210.0,102.25.210.63,102.25.0.0,Zarzis,Madanīn,TN,33.50398,11.11215,,Africa/Tunis
1.207.114.41,1.207.114.41,1.207.0.0,Hangzhou,Zhejiang,CN,30.29365,120.16142,,Asia/Shanghai
104.157.196.64,104.157.196.95,104.157.0.0,Belleville,Ontario,CA,44.16682,-77.38277,K8N,America/Toronto
105.154.197.32,105.154.197.47,105.154.0.0,Tinghir,Drâa-Tafilalet,MA,31.51472,-5.53278,,Africa/Casablanca
1.237.123.0,1.237.123.255,1.237.0.0,Icheon-si,Gyeonggi-do,KR,37.1939,127.5015,17402,Asia/Seoul
104.36.36.0,104.36.39.255,104.36.0.0,San Rafael,California,US,37.97353,-122.53109,94912,America/Los_Angeles
101.16.198.0,101.16.198.11,101.16.0.0,Beijing,Beijing,CN,39.9075,116.39723,,Asia/Shanghai
101.28.140.76,101.28.140.91,101.28.0.0,Beijing,Beijing,CN,39.9075,116.39723,,Asia/Shanghai
1.69.226.239,1.69.226.241,1.69.0.0,Nanjing,Jiangsu,CN,32.06167,118.77778,,Asia/Shanghai
1.32.102.69,1.32.102.70,1.32.0.0,Muar,Johor,MY,2.0442,102.5689,84200,Asia/Kuala_Lumpur
102.25.119.224,102.25.119.239,102.25.0.0,Ezzouhour,Sūsah,TN,35.79014,10.58264,,Africa/Tunis
1.15.45.176,1.15.45.183,1.15.0.0,Shanghai,Shanghai,CN,31.22222,121.45806,,Asia/Shanghai
1.187.19.238,1.187.19.238,1.187.0.0,Mumbai,Maharashtra,IN,19.07283,72.88261,400070,Asia/Kolkata
102.190.124.48,102.190.124.51,102.190.0.0,Abū Qurqāş,Minya,EG,27.93043,30.83826,,Africa/Cairo
101.191.237.144,101.191.237.147,101.191.0.0,Millfield,New South Wales,AU,-32.88856,151.26131,2325,Australia/Sydney
102.122.228.64,102.122.228.95,102.122.0.0,Geneina,Western Darfur,SD,13.45262,22.44725,,Africa/Khartoum
1.30.107.196,1.30.107.196,1.30.0.0,Tianjin,Tianjin,CN,39.14222,117.17667,,Asia/Shanghai
1.206.29.71,1.206.29.71,1.206.0.0,Hangzhou,Zhejiang,CN,30.29365,120.16142,,Asia/Shanghai
1.50.237.204,1.50.237.204,1.50.0.0,Chengdu,Sichuan,CN,30.66667,104.06667,,Asia/Shanghai
101.166.8.168,101.166.8.191,101.166.0.0,Campbelltown,New South Wales,AU,-34.04484,150.75101,2567,Australia/Sydney
1.1.236.100,1.1.236.111,1.1.0.0,Udon Thani,Udon Thani,TH,17.41567,102.78589,41000,Asia/Bangkok
1.0.103.40,1.0.103.47,1.0.0.0,Yamaguchi,Yamaguchi,JP,34.1885,131.4655,753-0071,Asia/Tokyo
1.196.113.28,1.196.113.31,1.196.0.0,Henan,Heilongjiang,CN,47.9658,126.01958,,Asia/Shanghai
104.240.55.116,104.240.55.118,104.240.0.0,Crownpoint,New Mexico,US,35.67808,-108.15118,87313,America/Denver
101.182.163.88,101.182.163.89,101.182.0.0,Sunshine Coast,Queensland,AU,-26.65682,153.07955,4558,Australia/Brisbane
1.0.157.58,1.0.157.58,1.0.0.0,Ko Yao,Phang Nga,TH,8.11013,98.59231,81110,Asia/Bangkok
1.181.178.165,1.181.178.165,1.181.0.0,Hangzhou,Zhejiang,CN,30.29365,120.16142,,Asia/Shanghai
101.166.91.160,101.166.91.163,101.166.0.0,Hallidays Point,New South Wales,AU,-32.06645,152.50148,2430,Australia/Sydney
1.176.41.64,1.176.41.127,1.176.0.0,Seoul,Seoul,KR,37.566,126.9784,03141,Asia/Seoul
103.117.20.108,103.117.20.111,103.117.0.0,Bidur,Perak,MY,4.11667,101.28333,35600,Asia/Kuala_Lumpur
105.154.69.104,105.154.69.105,105.154.0.0,Guelmim,Guelmim-Oued Noun,MA,28.98696,-10.05738,,Africa/Casablanca
101.25.80.211,101.25.80.211,101.25.0.0,Xiamen,Fujian,CN,24.47979,118.08187,,Asia/Shanghai
1.196.144.12,1.196.144.30,1.196.0.0,Hangzhou,Zhejiang,CN,30.29365,120.16142,,Asia/Shanghai
103.199.201.54,103.199.201.54,103.199.0.0,Darbhanga,Bihar,IN,26.22528,85.87514,847407,Asia/Kolkata
101.66.193.83,101.66.193.87,101.66.0.0,Tianjin,Tianjin,CN,39.14222,117.17667,,Asia/Shanghai
104.235.64.109,104.235.64.109,104.235.0.0,Mendota,Illinois,US,41.54725,-89.11759,61342,America/Chicago
101.74.152.0,101.74.152.55,101.74.0.0,Beijing,Beijing,CN,39.9075,116.39723,,Asia/Shanghai
105.109.82.92,105.109.82.96,105.109.0.0,Sétif,Sétif,DZ,36.19112,5.41373,19034,Africa/Algiers
1.52.196.48,1.52.196.49,1.52.0.0,Tân Phú,Đồng Nai,VN,11.27221,107.43655,76806,Asia/Ho_Chi_Minh
104.247.10.0,104.247.12.255,104.247.0.0,Warsaw,Mazovia,PL,52.2294,21.0174,00-512,Europe/Warsaw
101.137.34.165,101.137.34.165,101.137.0.0,Taichung,Taiwan,TW,24.1469,120.6839,,Asia/Taipei
1.53.51.123,1.53.51.131,1.53.0.0,Vĩnh Long,Vĩnh Long,VN,10.25369,105.9722,85150,Asia/Ho_Chi_Minh
101.137.108.255,101.137.108.255,101.137.0.0,Taichung,Taiwan,TW,24.1469,120.6839,,Asia/Taipei
102.32.179.0,102.32.179.5,102.32.0.0,Howick,KwaZulu-Natal,ZA,-29.47795,30.23057,3224,Africa/Johannesburg
101.28.67.50,101.28.67.51,101.28.0.0,Qingdao,Shandong,CN,36.06488,120.38042,,Asia/Shanghai
1.204.123.106,1.204.123.106,1.204.0.0,Chengdu,Sichuan,CN,30.66667,104.06667,,Asia/Shanghai
103.58.161.128,103.58.161.191,103.58.0.0,Pontianak,West Kalimantan,ID,-0.03194,109.325,,Asia/Pontianak
102.32.214.80,102.32.214.83,102.32.0.0,Witbank,Mpumalanga,ZA,-25.87133,29.23323,1032,Africa/Johannesburg
103.252.101.160,103.252.101.255,103.252.0.0,Jakarta,Jakarta,ID,-6.21462,106.84513,,Asia/Jakarta
102.65.202.48,102.65.202.255,102.65.0.0,Durban,KwaZulu-Natal,ZA,-29.8579,31.0292,4001,Africa/Johannesburg
1.54.18.96,1.54.18.97,1.54.0.0,Thái Bình,Thái Bình,VN,20.45,106.34002,06150,Asia/Bangkok
102.2.146.64,102.2.146.95,102.2.0.0,Eldoret,Uasin Gishu,KE,0.52036,35.26993,,Africa/Nairobi
1.27.200.10,1.27.200.11,1.27.0.0,Tianjin,Tianjin,CN,39.14222,117.17667,,Asia/Shanghai
101.24.159.18,101.24.159.19,101.24.0.0,Xiamen,Fujian,CN,24.47979,118.08187,,Asia/Shanghai
103.13.135.128,103.13.135.255,103.13.0.0,Dādri,Uttar Pradesh,IN,28.55257,77.55403,203207,Asia/Kolkata
101.51.196.160,101.51.196.203,101.51.0.0,Chiang Mai,Chiang Mai,TH,18.79038,98.98468,50000,Asia/Bangkok
101.19.164.52,101.19.164.61,101.19.0.0,Tianjin,Tianjin,CN,39.14222,117.17667,,Asia/Shanghai
102.7.35.204,102.7.35.207,102.7.0.0,Kitale,Trans Nzoia,KE,1.01572,35.00622,,Africa/Nairobi
101.205.236.224,101.205.236.231,101.205.0.0,Tianjin,Tianjin,CN,39.14222,117.17667,,Asia/Shanghai
103.32.92.0,103.32.95.255,103.32.0.0,Jiaxing,Zhejiang,CN,30.7522,120.75,,Asia/Shanghai
1.188.84.0,1.188.84.127,1.188.0.0,Jiamusi,Heilongjiang,CN,46.79711,130.31118,,Asia/Shanghai
100.41.196.219,100.41.196.239,100.41.0.0,Ashburn,Virginia,US,39.04372,-77.48749,20147,America/New_York
103.148.137.128,103.148.137.255,103.148.0.0,Mumbai,Maharashtra,IN,19.07283,72.88261,400070,Asia/Kolkata
1.42.48.0,1.42.48.7,1.42.0.0,Warnervale,New South Wales,AU,-33.24662,151.45173,2259,Australia/Sydney
101.249.81.142,101.249.81.143,101.249.0.0,Bayi,Tibet,CN,29.65812,94.35892,,Asia/Shanghai
